id,title,description,fantasy,business_name,contact,phone,lat,lon,address,category,source,link,agreement,ODS
695,PRENDAS - Ver. Ropas,MEDIANA,RUTA 3,RUTA 3,HOMBRE,120,-23.40945,-57.43743,AVENIDA GRAL BERNARDINO CABALLERO Y DR SANTOS CANILLAS,Productos y Servicios,Universidad Nacional de Concepción,www.unc.edu.py,"SI, Acepto","ODS 1: Fin de la pobreza, ODS 8: Trabajo decente y crecimiento económico"
696,DIARIOS - Agencias,MICRO,EL PESCADOR,EL PESCADOR,HOMBRE,971892337,-23.41997,-57.44265,MONSEÑOR BENIGNO LASCHI CASI IRIGOYEN,Productos y Servicios,Universidad Nacional de Concepción,www.unc.edu.py,"SI, Acepto","ODS 1: Fin de la pobreza, ODS 8: Trabajo decente y crecimiento económico"
697,FARMACIAS,MICRO,DESPENSA 13 DE JUNIO,DESPENSA 13 DE JUNIO,MUJER,0331 240 036,-23.41997,-57.44265,INTENDENTE CABRAL Y MONSEÑOR LASCHI GONZALEZ,Productos y Servicios,Universidad Nacional de Concepción,www.unc.edu.py,"SI, Acepto","ODS 1: Fin de la pobreza, ODS 8: Trabajo decente y crecimiento económico"
698,AUTOSERVICES,MICRO,COMPRA Y VENTA DE PESCADO,COMPRA Y VENTA DE PESCADO,HOMBRE,0,-23.41997,-57.44247,WALDIMIRO KOMPONIETZ C/ ALFREDO BERNAL,Productos y Servicios,Universidad Nacional de Concepción,www.unc.edu.py,"SI, Acepto","ODS 1: Fin de la pobreza, ODS 8: Trabajo decente y crecimiento económico"
699,ROPA INTERIOR - Ventas,MICRO,PESCADERIA VELAZQUEZ,PESCADERIA VELAZQUEZ,HOMBRE,0,-23.41997,-57.44265,MONSEÑOR LASCHI CASI IRIGOYEN,Productos y Servicios,Universidad Nacional de Concepción,www.unc.edu.py,"SI, Acepto","ODS 1: Fin de la pobreza, ODS 8: Trabajo decente y crecimiento económico"
700,PRENDAS - Ver. Ropas,MICRO,CRD,CRD,MUJER,976813087,-27.39305,-57.44276,TTE. JOSÉ CEFERINO GÓMEZ Y 2 DE MAYO,Productos y Servicios,Universidad Nacional de Concepción,www.unc.edu.py,"SI, Acepto","ODS 1: Fin de la pobreza, ODS 8: Trabajo decente y crecimiento económico"
701,BARES Y COPETINES,MICRO,VICTOR HUGO,VICTOR HUGO,MUJER,971414109,-23.39331,-57.4439,ANDRÉS MIANICOFF,Productos y Servicios,Universidad Nacional de Concepción,www.unc.edu.py,"SI, Acepto","ODS 1: Fin de la pobreza, ODS 8: Trabajo decente y crecimiento económico"
702,COMIDAS - Servicios de - Ver: Servicios de Comida,MICRO,POMBERO TATAKUA,POMBERO TATAKUA,HOMBRE,0983415911 - 0983620305,-23.402854,-57.442602,YEGROS C/ AVDA HERMINIO MENDOZA,Productos y Servicios,Universidad Nacional de Concepción,www.unc.edu.py,"SI, Acepto","ODS 1: Fin de la pobreza, ODS 8: Trabajo decente y crecimiento económico"
703,TAPICERIAS EN CUERO,MICRO,SNOOPY MODA INFANTIL,SNOOPY MODA INFANTIL,MUJER,331241857,-23.4095,-57.436216,AVDA BERNARDINO CABALLERO 510,Productos y Servicios,Universidad Nacional de Concepción,www.unc.edu.py,"SI, Acepto","ODS 1: Fin de la pobreza, ODS 8: Trabajo decente y crecimiento económico"
704,OPTICAS,MICRO,LA MAGA,LA MAGA,MUJER,0,-23.403608,-57.443831,TTE. FLORENCIO GOMEZ CASI 14 DE MAYO,Productos y Servicios,Universidad Nacional de Concepción,www.unc.edu.py,"SI, Acepto","ODS 1: Fin de la pobreza, ODS 8: Trabajo decente y crecimiento económico"
705,JOYERIAS,MICRO,DESPENSA THIAGO,DESPENSA THIAGO,MUJER,984488289,-23.4095,-57.435883,AVDA. BERNARDINO CABALLERO 524,Productos y Servicios,Universidad Nacional de Concepción,www.unc.edu.py,"SI, Acepto","ODS 1: Fin de la pobreza, ODS 8: Trabajo decente y crecimiento económico"
706,FERRETERIAS,MICRO,RYO S.A,RYO S.A,ORGANIZACION,0,-23.402671,-57.441454,AVDA PINEDO CASI HERMINIO MENDOZA,Productos y Servicios,Universidad Nacional de Concepción,www.unc.edu.py,"SI, Acepto","ODS 1: Fin de la pobreza, ODS 8: Trabajo decente y crecimiento económico"
707,"ARTICULOS DE ILUMINACION - Ver: Iluminacion, Artefactos",MICRO,PUNTO FARMA,PUNTO FARMA,ORGANIZACION,0,-23.403708,-57.441445,AVENIDA PINEDO Y HUMAITA,Productos y Servicios,Universidad Nacional de Concepción,www.unc.edu.py,"SI, Acepto","ODS 1: Fin de la pobreza, ODS 8: Trabajo decente y crecimiento económico"
708,BODEGAS,MICRO,MERCURIO CELL,MERCURIO CELL,HOMBRE,0,-23.403892,-57.441458,AVDA. PINEDO CASI TENIENTE GOMEZ,Productos y Servicios,Universidad Nacional de Concepción,www.unc.edu.py,"SI, Acepto","ODS 1: Fin de la pobreza, ODS 8: Trabajo decente y crecimiento económico"
709,LIBROS,MICRO,CASA OVELAR,CASA OVELAR,MUJER,242753,-23.409199,-57.442578,14 DE MAYO ENTRE TENIENTE AGUERO Y TENIENTE GOMEZ,Productos y Servicios,Universidad Nacional de Concepción,www.unc.edu.py,"SI, Acepto","ODS 1: Fin de la pobreza, ODS 8: Trabajo decente y crecimiento económico"
710,AUTOMOTORES - Electricidad del Automovil,MICRO,HIELOS RENE,HIELOS RENE,HOMBRE,240126,-23.404009,-57.442598,14 DE MAYO CASI TENIENTE AGUERO,Productos y Servicios,Universidad Nacional de Concepción,www.unc.edu.py,"SI, Acepto","ODS 1: Fin de la pobreza, ODS 8: Trabajo decente y crecimiento económico"
711,CELULAR - Activaciones,MICRO,HOTEL IMPERIAL,HOTEL IMPERIAL,HOMBRE,985137185,-23.40465,-57.444828,TENIENTE AGUERO CASI GENERAL GARAY,Productos y Servicios,Universidad Nacional de Concepción,www.unc.edu.py,"SI, Acepto","ODS 1: Fin de la pobreza, ODS 8: Trabajo decente y crecimiento económico"
712,ESTETICA INTEGRAL - Centros de,MICRO,SALON DE BELLEZA FRANCIS,SALON DE BELLEZA FRANCIS,MUJER,240131,-23.402974,-57.443818,14 DE MAYO CASI HERMINIO MENDOZA,Productos y Servicios,Universidad Nacional de Concepción,www.unc.edu.py,"SI, Acepto","ODS 1: Fin de la pobreza, ODS 8: Trabajo decente y crecimiento económico"
713,REMERAS - Ventas,MICRO,CASA EDGAR ANTONIO,CASA EDGAR ANTONIO,HOMBRE,0,-23.40457,-57.44211,TTE AGÜERO C/ YEGROS 186,Productos y Servicios,Universidad Nacional de Concepción,www.unc.edu.py,"SI, Acepto","ODS 1: Fin de la pobreza, ODS 8: Trabajo decente y crecimiento económico"
714,DESPENSAS,MICRO,OTY AUSERVICE,OTY AUSERVICE,HOMBRE,2428757,-23.404668,-57.442957,TTE. AGUERO ENTRE YEGROS Y 14 DE MAYO,Productos y Servicios,Universidad Nacional de Concepción,www.unc.edu.py,"SI, Acepto","ODS 1: Fin de la pobreza, ODS 8: Trabajo decente y crecimiento económico"
715,AGROVETERINARIAS,MICRO,GALESA,GALESA,MUJER,240018,-23.403779,-57.442531,YEGRLS 225,Productos y Servicios,Universidad Nacional de Concepción,www.unc.edu.py,"SI, Acepto","ODS 1: Fin de la pobreza, ODS 8: Trabajo decente y crecimiento económico"
716,FOTOCOPIADORAS - Insumos,MICRO,HERRERÍA CONCEPCIÓN,HERRERÍA CONCEPCIÓN,HOMBRE,971830422,-23.404599,-57.441959,TTE AGÜERO C/ YEGROS,Productos y Servicios,Universidad Nacional de Concepción,www.unc.edu.py,"SI, Acepto","ODS 1: Fin de la pobreza, ODS 8: Trabajo decente y crecimiento económico"
717,ELECTRODOMESTICOS,MICRO,AYA COURRIER,AYA COURRIER,MUJER,241030,-23.402533,-57.44155,AVDA. HERMINIO MENDOZA ENTRE AVDA PINEDO Y YEGROS,Productos y Servicios,Universidad Nacional de Concepción,www.unc.edu.py,"SI, Acepto","ODS 1: Fin de la pobreza, ODS 8: Trabajo decente y crecimiento económico"
718,NUTRICION ANIMAL,MICRO,DESPENSA FABISAN,DESPENSA FABISAN,MUJER,240046,-23.402727,-57.442558,YEGROS Y AVDA. HERMINIO MENDOZA,Productos y Servicios,Universidad Nacional de Concepción,www.unc.edu.py,"SI, Acepto","ODS 1: Fin de la pobreza, ODS 8: Trabajo decente y crecimiento económico"
719,INFORMATICA - Asesoria Integral,MICRO,PELUQUERIA SILVIO,PELUQUERIA SILVIO,HOMBRE,982675500,-23.404798,-57.443426,TENIENTE AGUERO CASI 14 DE MAYO,Productos y Servicios,Universidad Nacional de Concepción,www.unc.edu.py,"SI, Acepto","ODS 1: Fin de la pobreza, ODS 8: Trabajo decente y crecimiento económico"
720,BAZARES,MICRO,HOSPINORTE,HOSPINORTE,HOMBRE,331241242,-23.40332,-57.44543,IGNACIO ITURBE C/ TTE AGÜERO,Productos y Servicios,Universidad Nacional de Concepción,www.unc.edu.py,"SI, Acepto","ODS 1: Fin de la pobreza, ODS 8: Trabajo decente y crecimiento económico"
721,"CONTABILIDAD, Estudios - Ver: Estudios Contables",MICRO,LO DE LILA,LO DE LILA,MUJER,331241058,-23.40543,-57.44385,GRAL GARAY 366 C/ JULIO OTAÑO,Productos y Servicios,Universidad Nacional de Concepción,www.unc.edu.py,"SI, Acepto","ODS 1: Fin de la pobreza, ODS 8: Trabajo decente y crecimiento económico"
722,ELECTRODOMESTICOS,MICRO,SAN BLAS AVENIDA,SAN BLAS AVENIDA,HOMBRE,243308,-23.405229,-57.441372,AVDA PINEDO CASI OTAÑO,Productos y Servicios,Universidad Nacional de Concepción,www.unc.edu.py,"SI, Acepto","ODS 1: Fin de la pobreza, ODS 8: Trabajo decente y crecimiento económico"
723,LIBRERIAS,MICRO,ACACIAS,ACACIAS,HOMBRE,331241118,-23.408549,-57.443925,MCAL. ESTIGARRIBIA Y GRAL. GARAY,Productos y Servicios,Universidad Nacional de Concepción,www.unc.edu.py,"SI, Acepto","ODS 1: Fin de la pobreza, ODS 8: Trabajo decente y crecimiento económico"
724,FOTOGRAFIAS,MICRO,MÁS VISIÓN,MÁS VISIÓN,MUJER,331242123,-23.408549,-57.443925,MCAL. ESTIGARRIBIA C/ GRAL. GARAY,Productos y Servicios,Universidad Nacional de Concepción,www.unc.edu.py,"SI, Acepto","ODS 1: Fin de la pobreza, ODS 8: Trabajo decente y crecimiento económico"
725,DESPENSAS,MICRO,MR,MR,HOMBRE,971490802,-23.39909,-57.4474,ASUNCIÓN C/ JUANA M DE ORTELLADO,Productos y Servicios,Universidad Nacional de Concepción,www.unc.edu.py,"SI, Acepto","ODS 1: Fin de la pobreza, ODS 8: Trabajo decente y crecimiento económico"
726,RAMOS GENERALES -Ver: Almacenes Ramos Generales,MICRO,EL ZURDO COMERCIAL,EL ZURDO COMERCIAL,MUJER,0,-23.39758,-57.45013,INSMAL GONZALEZ C/ ISMAEL IRALA FERNÁNDEZ,Productos y Servicios,Universidad Nacional de Concepción,www.unc.edu.py,"SI, Acepto","ODS 1: Fin de la pobreza, ODS 8: Trabajo decente y crecimiento económico"
727,COMESTIBLES - Distribuidoras,MICRO,DELFI,DELFI,HOMBRE,0,-23.3971,-57.44968,MANUEL IRALA FERNANDEZ C/ 1° DE MARZO,Productos y Servicios,Universidad Nacional de Concepción,www.unc.edu.py,"SI, Acepto","ODS 1: Fin de la pobreza, ODS 8: Trabajo decente y crecimiento económico"
728,ODONTOLOGIA - Clinicas,MICRO,STILO FASHIÓN,STILO FASHIÓN,MUJER,0,-23.39796,-57.44986,FERNANDO DE LA MORA C/ ISMAEL GONZALEZ,Productos y Servicios,Universidad Nacional de Concepción,www.unc.edu.py,"SI, Acepto","ODS 1: Fin de la pobreza, ODS 8: Trabajo decente y crecimiento económico"
729,BARES Y COPETINES,MICRO,ALDA,ALDA,MUJER,981378037,-23.39899,-57.44896,ASUNCIÓN Y 1°DE MARZO,Productos y Servicios,Universidad Nacional de Concepción,www.unc.edu.py,"SI, Acepto","ODS 1: Fin de la pobreza, ODS 8: Trabajo decente y crecimiento económico"
730,RAMOS GENERALES -Ver: Almacenes Ramos Generales,MICRO,EL CONDOR,EL CONDOR,MUJER,0331 242870,-23.39709,-57.44883,MANUEL IRALA FERNANDEZ C/ 1° DE MARZO,Productos y Servicios,Universidad Nacional de Concepción,www.unc.edu.py,"SI, Acepto","ODS 1: Fin de la pobreza, ODS 8: Trabajo decente y crecimiento económico"
731,ABOGADOS,MICRO,WALTER LEONARDO ESCOBAR FLECHA,WALTER LEONARDO ESCOBAR FLECHA,HOMBRE,971543767,-23.39811,-57.44847,FERNANDO DE LA MORA Y 1° DE MARZO,Productos y Servicios,Universidad Nacional de Concepción,www.unc.edu.py,"SI, Acepto","ODS 1: Fin de la pobreza, ODS 8: Trabajo decente y crecimiento económico"
732,DESPENSAS,MICRO,CARNICERIA Y DESPENSA,CARNICERIA Y DESPENSA,HOMBRE,973533477,-23.3971,-57.4473,CAPITAN MANUEL IRALA Y PROFESOR MERALDA DE ORTELLADO,Productos y Servicios,Universidad Nacional de Concepción,www.unc.edu.py,"SI, Acepto","ODS 1: Fin de la pobreza, ODS 8: Trabajo decente y crecimiento económico"
733,DESPENSAS,MICRO,MIÑO,MIÑO,HOMBRE,976143629,-23.3976,-57.44723,PROFESOR MERALDA OTERLLADO C/ FERNANDO DE LA MORA,Productos y Servicios,Universidad Nacional de Concepción,www.unc.edu.py,"SI, Acepto","ODS 1: Fin de la pobreza, ODS 8: Trabajo decente y crecimiento económico"
734,BODEGAS,MICRO,LILIANA,LILIANA,MUJER,976907280,-23.39803,-57.44757,FERNANDO DE LA MORA,Productos y Servicios,Universidad Nacional de Concepción,www.unc.edu.py,"SI, Acepto","ODS 1: Fin de la pobreza, ODS 8: Trabajo decente y crecimiento económico"
735,PESCADERIAS,MICRO,ARAMI CELL,ARAMI CELL,HOMBRE,971688788,-23.408552,-57.443877,MCAL. ESTIGARRIBIA C/ 14 DE MAYO,Productos y Servicios,Universidad Nacional de Concepción,www.unc.edu.py,"SI, Acepto","ODS 1: Fin de la pobreza, ODS 8: Trabajo decente y crecimiento económico"
736,PESCADERIAS,MICRO,SANTA ROSA,SANTA ROSA,MUJER,971826169,-23.408528,-57.443814,MCAL. ESTIGARRIBIA C/ 14 DE MAYO,Productos y Servicios,Universidad Nacional de Concepción,www.unc.edu.py,"SI, Acepto","ODS 1: Fin de la pobreza, ODS 8: Trabajo decente y crecimiento económico"
737,DESPENSAS,MICRO,NOVA,NOVA,MUJER,331240471,-23.408533,-57.443666,MCAL. ESTIGARRIBIA Y 14 DE MAYO,Productos y Servicios,Universidad Nacional de Concepción,www.unc.edu.py,"SI, Acepto","ODS 1: Fin de la pobreza, ODS 8: Trabajo decente y crecimiento económico"
738,PELUQUERIAS,MICRO,EXCEL,EXCEL,MUJER,331240285,-23.4085599,-57.4435733,MCAL. ESTIGARRIBIA Y 14 DE MAYO,Productos y Servicios,Universidad Nacional de Concepción,www.unc.edu.py,"SI, Acepto","ODS 1: Fin de la pobreza, ODS 8: Trabajo decente y crecimiento económico"
739,DESPENSAS,MICRO,BLACK AND WHITE,BLACK AND WHITE,MUJER,0,-23.41204,-57.43422,TENIENTE UBALDO CABRERA Y MAYOR LORENZO M.,Productos y Servicios,Universidad Nacional de Concepción,www.unc.edu.py,"SI, Acepto","ODS 1: Fin de la pobreza, ODS 8: Trabajo decente y crecimiento económico"
740,CARNICERIAS,MICRO,BAZAR MARINA,BAZAR MARINA,MUJER,984863335,-23.40916,-57.43615,AVENIDA BERBARDINO CABALLERO Y SARGENTO PIRELLI,Productos y Servicios,Universidad Nacional de Concepción,www.unc.edu.py,"SI, Acepto","ODS 1: Fin de la pobreza, ODS 8: Trabajo decente y crecimiento económico"
741,BODEGAS,MICRO,RECALDE,RECALDE,HOMBRE,0331 242 704,-23.40935,-57.43697,AVENIDA BERNARDINO CABALLERO Y SARGENTO PIRELLO,Productos y Servicios,Universidad Nacional de Concepción,www.unc.edu.py,"SI, Acepto","ODS 1: Fin de la pobreza, ODS 8: Trabajo decente y crecimiento económico"
742,DESPENSAS,MICRO,SAN FRANCISCO,SAN FRANCISCO,MUJER,0331 242 931,-23.40859,-57.43672,MAYOR LORENZOY SARGENTO PIRELLI,Productos y Servicios,Universidad Nacional de Concepción,www.unc.edu.py,"SI, Acepto","ODS 1: Fin de la pobreza, ODS 8: Trabajo decente y crecimiento económico"
743,MINI-MERCADOS,MICRO,CAACUPE,CAACUPE,HOMBRE,972538119,-23.40935,-57.43697,AVENIDA BERNARDINO CABALLERO Y DR. SANTOS CANILLA,Productos y Servicios,Universidad Nacional de Concepción,www.unc.edu.py,"SI, Acepto","ODS 1: Fin de la pobreza, ODS 8: Trabajo decente y crecimiento económico"
744,PESCADERIAS,MICRO,NIÑO JESUS,NIÑO JESUS,HOMBRE,971708889,-23.40856,-57.43656,MAYOR LORENZO MEDINA Y DR. SANTOS CANILLA,Productos y Servicios,Universidad Nacional de Concepción,www.unc.edu.py,"SI, Acepto","ODS 1: Fin de la pobreza, ODS 8: Trabajo decente y crecimiento económico"
745,PESCADERIAS,MICRO,G Y R,G Y R,HOMBRE,971563945,-23.40871,-57.43911,MAYOR LORENZO MEDINA Y DR. SANTOS CANILLS,Productos y Servicios,Universidad Nacional de Concepción,www.unc.edu.py,"SI, Acepto","ODS 1: Fin de la pobreza, ODS 8: Trabajo decente y crecimiento económico"
746,DESPENSAS,MICRO,AGRO VETERINARIA,AGRO VETERINARIA,MUJER,0331 241969,-23.40792,-57.43975,MAYOR LORENZO MEDINA Y DR. SANTOS CANILLA,Productos y Servicios,Universidad Nacional de Concepción,www.unc.edu.py,"SI, Acepto","ODS 1: Fin de la pobreza, ODS 8: Trabajo decente y crecimiento económico"
747,TRANSPORTADORAS,MICRO,LOPEZ COMERCIAL,LOPEZ COMERCIAL,HOMBRE,0331 242 912,-23.40779,-57.441,MAYOR LORENZO MEDINA Y DR. SANTOS CANILLA,Productos y Servicios,Universidad Nacional de Concepción,www.unc.edu.py,"SI, Acepto","ODS 1: Fin de la pobreza, ODS 8: Trabajo decente y crecimiento económico"
748,PESCADERIAS,MICRO,SOFIA,SOFIA,HOMBRE,971570299,-23.40862,-57.43808,MAYOR LORENZO MEDINA Y PROFESOR GUILLERMO CABRAL,Productos y Servicios,Universidad Nacional de Concepción,www.unc.edu.py,"SI, Acepto","ODS 1: Fin de la pobreza, ODS 8: Trabajo decente y crecimiento económico"
749,DESPENSAS,MICRO,SONIA ROJAS,SONIA ROJAS,ORGANIZACION,971925643,-23.40862,-57.43808,MAYOR LORENZO MEDINA Y PROFESOR GUILLERMO CABRAL,Productos y Servicios,Universidad Nacional de Concepción,www.unc.edu.py,"SI, Acepto","ODS 1: Fin de la pobreza, ODS 8: Trabajo decente y crecimiento económico"
750,PESCADERIAS,MICRO,BONITA NOVEDADES,BONITA NOVEDADES,MUJER,973679334,-23.40932,-57.43902,AVENIDA BERNARDINO CABALLERO N° 303,Productos y Servicios,Universidad Nacional de Concepción,www.unc.edu.py,"SI, Acepto","ODS 1: Fin de la pobreza, ODS 8: Trabajo decente y crecimiento económico"
751,PESCADERIAS,MICRO,SAN NICOLAS,SAN NICOLAS,HOMBRE,0331 240 944,-23.40936,-57.43877,AVENIDA BERNARDINO CABALLERO Y PROFESOR GUILLERMO CABRAL,Productos y Servicios,Universidad Nacional de Concepción,www.unc.edu.py,"SI, Acepto","ODS 1: Fin de la pobreza, ODS 8: Trabajo decente y crecimiento económico"
752,BARES Y COPETINES,MICRO,SAN FRANCISCO,SAN FRANCISCO,HOMBRE,982661445,-23.4093,-57.43882,AVENIDA BERNARDINO CABALLERO Y PROFESOR GUILLERMO CABRAL,Productos y Servicios,Universidad Nacional de Concepción,www.unc.edu.py,"SI, Acepto","ODS 1: Fin de la pobreza, ODS 8: Trabajo decente y crecimiento económico"
753,PRENDAS - Ver. Ropas,MICRO,SAN RAFAEL,SAN RAFAEL,HOMBRE,0,-23.40952,-57.43883,AVENIDA BERNARDINO CABALLERO Y PROFESOR CABRAL,Productos y Servicios,Universidad Nacional de Concepción,www.unc.edu.py,"SI, Acepto","ODS 1: Fin de la pobreza, ODS 8: Trabajo decente y crecimiento económico"
754,PIZZERIAS,MICRO,CAMPESINITO,CAMPESINITO,HOMBRE,985863439,-23.40936,-57.43792,AVENIDA BERNARDINO CABALLERO Y PROFESOR CABRAL,Productos y Servicios,Universidad Nacional de Concepción,www.unc.edu.py,"SI, Acepto","ODS 1: Fin de la pobreza, ODS 8: Trabajo decente y crecimiento económico"
755,ROPAS INFANTILES,MICRO,PELUQUERIA GABY CARILLO,PELUQUERIA GABY CARILLO,MUJER,975398899,-23.40988,-57.43553,DOCTOR MARCIAL ROY C/ TENIENTE UBALDO,Productos y Servicios,Universidad Nacional de Concepción,www.unc.edu.py,"SI, Acepto","ODS 1: Fin de la pobreza, ODS 8: Trabajo decente y crecimiento económico"
756,DESPENSAS,MICRO,MISTICA,MISTICA,MUJER,982390754,-23.39459,-57.44281,GUMERCINDO SOSA ESQ. 2 DE MAYO,Productos y Servicios,Universidad Nacional de Concepción,www.unc.edu.py,"SI, Acepto","ODS 1: Fin de la pobreza, ODS 8: Trabajo decente y crecimiento económico"
757,DESPENSAS,MICRO,RITA,RITA,MUJER,971843283,-23.3943,-57.44394,PROFESOR ANDRES MIASNICOFF,Productos y Servicios,Universidad Nacional de Concepción,www.unc.edu.py,"SI, Acepto","ODS 1: Fin de la pobreza, ODS 8: Trabajo decente y crecimiento económico"
758,AUTOMOTORES - Compra-Ventas,MICRO,TYS,TYS,MUJER,0,-23.39436,-57.44607,JORGE SEBASTIAN MIRANDA CASI GUMERCINDO SOSA,Productos y Servicios,Universidad Nacional de Concepción,www.unc.edu.py,"SI, Acepto","ODS 1: Fin de la pobreza, ODS 8: Trabajo decente y crecimiento económico"
760,TELEFONIA - Servicios,MICRO,ESTACIÓN DE SERVICIOS SAN GREGORIO VARGAS MEDINA S.A,ESTACIÓN DE SERVICIOS SAN GREGORIO VARGAS MEDINA S.A,ORGANIZACION,331242041,-23.392881,-57.428984,AVDA. GUALBERTO CARDUS Y JULIA CUETO ESTIGARRIBIA,Productos y Servicios,Universidad Nacional de Concepción,www.unc.edu.py,"SI, Acepto","ODS 1: Fin de la pobreza, ODS 8: Trabajo decente y crecimiento económico"
761,DESPENSAS,MICRO,RYN,RYN,MUJER,975831259,-23.393086,-57.429281,SAN LUIS,Productos y Servicios,Universidad Nacional de Concepción,www.unc.edu.py,"SI, Acepto","ODS 1: Fin de la pobreza, ODS 8: Trabajo decente y crecimiento económico"
762,ABOGADOS,MICRO,ROCÍO,ROCÍO,MUJER,0,-23.394858,-57.429657,AQUIDABAN C/EMILIO SOSA GAONA,Productos y Servicios,Universidad Nacional de Concepción,www.unc.edu.py,"SI, Acepto","ODS 1: Fin de la pobreza, ODS 8: Trabajo decente y crecimiento económico"
763,ESTUDIOS JURIDICOS,MICRO,PLAZA CASTILLO,PLAZA CASTILLO,HOMBRE,983192047,-23.393578,-57.426353,AQUIDABAN C/ MUSICOS DEL CHACO,Productos y Servicios,Universidad Nacional de Concepción,www.unc.edu.py,"SI, Acepto","ODS 1: Fin de la pobreza, ODS 8: Trabajo decente y crecimiento económico"
764,HOTELES,MICRO,ELENITA,ELENITA,MUJER,331241480,-23.396503,-57.429957,MUSICOS DEL CHACO C/ TTE GONZALEZ,Productos y Servicios,Universidad Nacional de Concepción,www.unc.edu.py,"SI, Acepto","ODS 1: Fin de la pobreza, ODS 8: Trabajo decente y crecimiento económico"
765,IMPRENTAS,MICRO,COPETÍN SAN LUIS,COPETÍN SAN LUIS,MUJER,973824674,-23.395843,-57.429657,SAN LUIS,Productos y Servicios,Universidad Nacional de Concepción,www.unc.edu.py,"SI, Acepto","ODS 1: Fin de la pobreza, ODS 8: Trabajo decente y crecimiento económico"
766,PELUQUERIAS,MICRO,JOELITO,JOELITO,MUJER,0,-23.39476,-57.44517,JUANA F. DE ALONSO,Productos y Servicios,Universidad Nacional de Concepción,www.unc.edu.py,"SI, Acepto","ODS 1: Fin de la pobreza, ODS 8: Trabajo decente y crecimiento económico"
767,FERRETERIAS,MICRO,SAN LUIS,SAN LUIS,HOMBRE,971895533,-23.397192,-57.432382,INTENDENTE RODOLFO C/JOSÉ DOLORES,Productos y Servicios,Universidad Nacional de Concepción,www.unc.edu.py,"SI, Acepto","ODS 1: Fin de la pobreza, ODS 8: Trabajo decente y crecimiento económico"
768,DESPENSAS,MICRO,AUTOSERVICE SYM,AUTOSERVICE SYM,MUJER,981689797,-23.39605,-57.430086,MANUEL IRALA C/ JULIA MIRANDA,Productos y Servicios,Universidad Nacional de Concepción,www.unc.edu.py,"SI, Acepto","ODS 1: Fin de la pobreza, ODS 8: Trabajo decente y crecimiento económico"
769,LIBRERIAS,MICRO,TIO LEPU,TIO LEPU,HOMBRE,971811187,-23.395715,-57.429399,INTENDENTE RODOLFO GONZALEZ / JULIA CUETO DE ESTIGARRIBIA,Productos y Servicios,Universidad Nacional de Concepción,www.unc.edu.py,"SI, Acepto","ODS 1: Fin de la pobreza, ODS 8: Trabajo decente y crecimiento económico"
770,HERRERIAS DE OBRA,MICRO,LULUKA COMERCIAL,LULUKA COMERCIAL,HOMBRE,971598511,-23.39601,-57.429271,INTENDENTE RODOLFO C/ JULIA MIRANDA CUETO,Productos y Servicios,Universidad Nacional de Concepción,www.unc.edu.py,"SI, Acepto","ODS 1: Fin de la pobreza, ODS 8: Trabajo decente y crecimiento económico"
771,HERRERIAS ARTISTICAS,MICRO,GOMERIA DOS HERMANOS,GOMERIA DOS HERMANOS,HOMBRE,973198916,-23.41461,-57.43814,ALBERTO COLOMBINO Y HERNAN ALBERTINI,Productos y Servicios,Universidad Nacional de Concepción,www.unc.edu.py,"SI, Acepto","ODS 1: Fin de la pobreza, ODS 8: Trabajo decente y crecimiento económico"
772,ESTUDIOS JURIDICOS,MICRO,TRES HERMANOS,TRES HERMANOS,MUJER,984535042,-23.408437,-57.43912,OBRERO ENTRE JUANA DE ALONSO,Productos y Servicios,Universidad Nacional de Concepción,www.unc.edu.py,"SI, Acepto","ODS 1: Fin de la pobreza, ODS 8: Trabajo decente y crecimiento económico"
773,CORREO PRIVADO,MICRO,COMERCIAL SIN RIVAL,COMERCIAL SIN RIVAL,MUJER,975427027,-23.396069,-57.4297,SAN LUIS,Productos y Servicios,Universidad Nacional de Concepción,www.unc.edu.py,"SI, Acepto","ODS 1: Fin de la pobreza, ODS 8: Trabajo decente y crecimiento económico"
774,FINANCIERAS,MICRO,COPETÍN ARAMÍ,COPETÍN ARAMÍ,MUJER,0,-23.39796,-57.429743,MADRINAS DE GUERRA C/QUEIROZ CANDIA,Productos y Servicios,Universidad Nacional de Concepción,www.unc.edu.py,"SI, Acepto","ODS 1: Fin de la pobreza, ODS 8: Trabajo decente y crecimiento económico"
775,PELUQUERIAS,MICRO,MILAGRO,MILAGRO,MUJER,972886930,-23.396975,-57.429829,MADRINAS DE GUERRA,Productos y Servicios,Universidad Nacional de Concepción,www.unc.edu.py,"SI, Acepto","ODS 1: Fin de la pobreza, ODS 8: Trabajo decente y crecimiento económico"
776,ESTACIONES DE SERVICIOS - Productos para,MICRO,SANTA ROSA,SANTA ROSA,MUJER,971791592,-23.397802,-57.429571,MADRINAS DE GUERRA,Productos y Servicios,Universidad Nacional de Concepción,www.unc.edu.py,"SI, Acepto","ODS 1: Fin de la pobreza, ODS 8: Trabajo decente y crecimiento económico"
777,DISPENSADORES DE PAPEL HIGIENICO,MICRO,FRANKAN,FRANKAN,HOMBRE,971580081,-23.397133,-57.429829,VILLA ARMANDO,Productos y Servicios,Universidad Nacional de Concepción,www.unc.edu.py,"SI, Acepto","ODS 1: Fin de la pobreza, ODS 8: Trabajo decente y crecimiento económico"
778,DISPENSADORES DE TOALLAS DE PAPEL,MICRO,EL BUEN GUSTO,EL BUEN GUSTO,MUJER,0,-23.396936,-57.429914,MADRINAS DE GUERRA C/ JOSE ALVARENGA,Productos y Servicios,Universidad Nacional de Concepción,www.unc.edu.py,"SI, Acepto","ODS 1: Fin de la pobreza, ODS 8: Trabajo decente y crecimiento económico"
779,PAPELERIAS,MICRO,CARNICERIA EL TORITO,CARNICERIA EL TORITO,HOMBRE,971801180,-23.409428,-57.438928,PROF. CABRAL C/ BERNARDINO CABALLERO,Productos y Servicios,Universidad Nacional de Concepción,www.unc.edu.py,"SI, Acepto","ODS 1: Fin de la pobreza, ODS 8: Trabajo decente y crecimiento económico"
780,GASTRONOMIA - Servicios,MICRO,NYA,NYA,MUJER,982612390,-23.39796,-57.429399,MADRINAS DE GUERRA C/JULIA MIRANDA CUETO,Productos y Servicios,Universidad Nacional de Concepción,www.unc.edu.py,"SI, Acepto","ODS 1: Fin de la pobreza, ODS 8: Trabajo decente y crecimiento económico"
781,BOCADITOS - Servicios de - Ver: Servicios de Lunch,PEQUEÑA,LA VICTORIA,LA VICTORIA,MUJER,972236412,-23.396562,-57.428863,PADRE QUEIROZ CANDIA C/ MADRINAS DE GUERRA,Productos y Servicios,Universidad Nacional de Concepción,www.unc.edu.py,"SI, Acepto","ODS 1: Fin de la pobreza, ODS 8: Trabajo decente y crecimiento económico"
782,GASTRONOMIA - Servicios,MICRO,RAUL SERVICE,RAUL SERVICE,HOMBRE,331243030,-23.40851,-57.443304,MCAL. ESTIGARRIBIA Y 14 DE MAYO,Productos y Servicios,Universidad Nacional de Concepción,www.unc.edu.py,"SI, Acepto","ODS 1: Fin de la pobreza, ODS 8: Trabajo decente y crecimiento económico"
783,SUPERMERCADOS,MICRO,JMR,JMR,MUJER,,-23.396798,-57.429035,QUEIROZ CANDIA,Productos y Servicios,Universidad Nacional de Concepción,www.unc.edu.py,"SI, Acepto","ODS 1: Fin de la pobreza, ODS 8: Trabajo decente y crecimiento económico"
784,"TELEVISORES - Servicios Tecnicos - Ver: Electronica, Reparaciones",PEQUEÑA,CEC,CEC,MUJER,331242646,-23.408535,-57.44295,MCAL. ESTIGARRIBIA Y 14 DE MAYO,Productos y Servicios,Universidad Nacional de Concepción,www.unc.edu.py,"SI, Acepto","ODS 1: Fin de la pobreza, ODS 8: Trabajo decente y crecimiento económico"
785,TELEFONIA CELULAR - Empresas Proveedores de Servicios,MICRO,DE LA MECHE,DE LA MECHE,MUJER,975585242,-23.39646,-57.44508,JUANA F. DE ALONSO C/ OBRERO,Productos y Servicios,Universidad Nacional de Concepción,www.unc.edu.py,"SI, Acepto","ODS 1: Fin de la pobreza, ODS 8: Trabajo decente y crecimiento económico"
786,HELADERIAS,MICRO,QUEVEDO,QUEVEDO,HOMBRE,669531-0,-23.408505,-57.442896,MCAL. ESTIGARRIBIA Y 14 DE MAYO,Productos y Servicios,Universidad Nacional de Concepción,www.unc.edu.py,"SI, Acepto","ODS 1: Fin de la pobreza, ODS 8: Trabajo decente y crecimiento económico"
787,CLINICA MEDICA - Medicos,MICRO,DOS HIJOS,DOS HIJOS,MUJER,976863321,-23.39576,-57.4416,AVENIDA PINEDO ESQ. OBRERO,Productos y Servicios,Universidad Nacional de Concepción,www.unc.edu.py,"SI, Acepto","ODS 1: Fin de la pobreza, ODS 8: Trabajo decente y crecimiento económico"
788,FLORERIAS,MICRO,EL BIGOTE,EL BIGOTE,MUJER,331240580,-23.407845,-57.444811,PTE. FRANCO Y GRAL. GARAY,Productos y Servicios,Universidad Nacional de Concepción,www.unc.edu.py,"SI, Acepto","ODS 1: Fin de la pobreza, ODS 8: Trabajo decente y crecimiento económico"
789,OBRAS CIVILES - Ver: Construcciones Civiles,MICRO,TALLER,TALLER,HOMBRE,973412404,-23.39594,-57.44159,AVENIDA AGUSTIN FERNANDO DE PINEDO,Productos y Servicios,Universidad Nacional de Concepción,www.unc.edu.py,"SI, Acepto","ODS 1: Fin de la pobreza, ODS 8: Trabajo decente y crecimiento económico"
790,LAVADEROS DE AUTOVEHICULOS,MICRO,FRANCO MOTO REPUESTOS,FRANCO MOTO REPUESTOS,HOMBRE,331240081,-23.396699,-57.428906,MADRINAS DE GUERRA Y QUEIROZ CANDIA,Productos y Servicios,Universidad Nacional de Concepción,www.unc.edu.py,"SI, Acepto","ODS 1: Fin de la pobreza, ODS 8: Trabajo decente y crecimiento económico"
791,MOTOCICLETAS - Repuestos y Accesorios,MICRO,PEPES,PEPES,MUJER,0,-23.407181,-57.44148,AVENIDA PINEDO,Productos y Servicios,Universidad Nacional de Concepción,www.unc.edu.py,"SI, Acepto","ODS 1: Fin de la pobreza, ODS 8: Trabajo decente y crecimiento económico"
792,BODEGAS,PEQUEÑA,PEPES,PEPES,MUJER,0,-23.407796,-57.441759,PTE. FRANCO E/ YEGROS,Productos y Servicios,Universidad Nacional de Concepción,www.unc.edu.py,"SI, Acepto","ODS 1: Fin de la pobreza, ODS 8: Trabajo decente y crecimiento económico"
793,PANADERIAS,MICRO,ELECTRO CELL,ELECTRO CELL,HOMBRE,984932357,-23.39576,-57.4416,AVENIDA AGUSTIN FERNANDO DE PINEDO ESQ.OBRERO,Productos y Servicios,Universidad Nacional de Concepción,www.unc.edu.py,"SI, Acepto","ODS 1: Fin de la pobreza, ODS 8: Trabajo decente y crecimiento económico"
794,PELUQUERIAS,MICRO,DOÑA DALIA,DOÑA DALIA,MUJER,971820677,-23.397015,-57.428949,QUEIROZ CANDIA,Productos y Servicios,Universidad Nacional de Concepción,www.unc.edu.py,"SI, Acepto","ODS 1: Fin de la pobreza, ODS 8: Trabajo decente y crecimiento económico"
796,ENMARCADOS - Taller de,MICRO,MOTORMARKET S.A.,MOTORMARKET S.A.,HOMBRE,971800365,-23.41456,-57.43712,AV. HERIBERTO COLOMBINO E/ JUAN BAUTISTA Y CLAUDIO ACOSTA,Productos y Servicios,Universidad Nacional de Concepción,www.unc.edu.py,"SI, Acepto","ODS 1: Fin de la pobreza, ODS 8: Trabajo decente y crecimiento económico"
797,CARNICERIAS,MICRO,CARNES CHACO,CARNES CHACO,HOMBRE,973719369,-23.398945,-57.428906,QUEIROS CANDIA,Productos y Servicios,Universidad Nacional de Concepción,www.unc.edu.py,"SI, Acepto","ODS 1: Fin de la pobreza, ODS 8: Trabajo decente y crecimiento económico"
798,ELECTRONICA - Instalaciones,MICRO,SHIMURA MOTO REPUESTOS,SHIMURA MOTO REPUESTOS,HOMBRE,331242052,-23.398571,-57.428949,QUEIROZ CANDIA / TTE ROJAS SILVA,Productos y Servicios,Universidad Nacional de Concepción,www.unc.edu.py,"SI, Acepto","ODS 1: Fin de la pobreza, ODS 8: Trabajo decente y crecimiento económico"
799,RADIO MENSAJES - Servicios,MICRO,AUTOSERVICE ANDREA,AUTOSERVICE ANDREA,HOMBRE,971561639,-23.398394,-57.429292,QUEIROS CANDIA / TTE ROJAS SILVA,Productos y Servicios,Universidad Nacional de Concepción,www.unc.edu.py,"SI, Acepto","ODS 1: Fin de la pobreza, ODS 8: Trabajo decente y crecimiento económico"
804,IMPRENTAS,MICRO,KARANDA-Y,KARANDA-Y,HOMBRE,0,-23.40762,-57.44712,PTE FRANCO,Productos y Servicios,Universidad Nacional de Concepción,www.unc.edu.py,"SI, Acepto","ODS 1: Fin de la pobreza, ODS 8: Trabajo decente y crecimiento económico"
808,CLINICAS VETERINARIAS - Ver: Veterinarias,MICRO,ALQUILER DE GLOBO LOCO,ALQUILER DE GLOBO LOCO,HOMBRE,971697692,-23.39579,-57.44326,OBRERO CASI 2 DE MAYO,Productos y Servicios,Universidad Nacional de Concepción,www.unc.edu.py,"SI, Acepto","ODS 1: Fin de la pobreza, ODS 8: Trabajo decente y crecimiento económico"
812,ELECTRODOMESTICOS,MICRO,RAMIREZ,RAMIREZ,HOMBRE,986260285,-23.396699,-57.433476,TTE RODRIGUEZ Y MADRINAS DE GUERRA,Productos y Servicios,Universidad Nacional de Concepción,www.unc.edu.py,"SI, Acepto","ODS 1: Fin de la pobreza, ODS 8: Trabajo decente y crecimiento económico"
813,ELECTRODOMESTICOS,MICRO,SAN DIEGO,SAN DIEGO,HOMBRE,241836,-23.39489,-57.44493,JUANA DE ALONSO Y PROFESOR ANDRES,Productos y Servicios,Universidad Nacional de Concepción,www.unc.edu.py,"SI, Acepto","ODS 1: Fin de la pobreza, ODS 8: Trabajo decente y crecimiento económico"
814,ALMACENAJES - Depositos,MICRO,MUNDO GYM,MUNDO GYM,MUJER,971833726,-23.396542,-57.433519,TENIENTE C/MADRINAS DE GUERRA,Productos y Servicios,Universidad Nacional de Concepción,www.unc.edu.py,"SI, Acepto","ODS 1: Fin de la pobreza, ODS 8: Trabajo decente y crecimiento económico"
815,ALMACENAJES - Depositos,MICRO,FYM,FYM,HOMBRE,240196,-23.39499,-57.44374,ANDRES MIASNIKOFF,Productos y Servicios,Universidad Nacional de Concepción,www.unc.edu.py,"SI, Acepto","ODS 1: Fin de la pobreza, ODS 8: Trabajo decente y crecimiento económico"
817,MALLAS PARA FRACCIONAMIENTOS DE FRUTASY VERDURAS,MICRO,YEMAR,YEMAR,MUJER,982988584,-23.397231,-57.434635,MEDICOS DEL CHACO,Productos y Servicios,Universidad Nacional de Concepción,www.unc.edu.py,"SI, Acepto","ODS 1: Fin de la pobreza, ODS 8: Trabajo decente y crecimiento económico"
818,PELUQUERIAS,MICRO,KINO,KINO,HOMBRE,975245485,-23.39593,-57.44428,OBRERO Y ANDRES MIASNICOFF,Productos y Servicios,Universidad Nacional de Concepción,www.unc.edu.py,"SI, Acepto","ODS 1: Fin de la pobreza, ODS 8: Trabajo decente y crecimiento económico"
819,DESPENSAS,MICRO,GILDA,GILDA,MUJER,971283423,-23.39593,-57.44428,OBRERO CASI JUANA DE ALONZO,Productos y Servicios,Universidad Nacional de Concepción,www.unc.edu.py,"SI, Acepto","ODS 1: Fin de la pobreza, ODS 8: Trabajo decente y crecimiento económico"
820,DESPENSAS,MICRO,NERY AUTO MOTOR,NERY AUTO MOTOR,HOMBRE,971802695,-23.396325,-57.436674,AVDA. GUALBERTO CARDUZ,Productos y Servicios,Universidad Nacional de Concepción,www.unc.edu.py,"SI, Acepto","ODS 1: Fin de la pobreza, ODS 8: Trabajo decente y crecimiento económico"
822,DESPENSAS,MICRO,BRAULIO ACOSTA,BRAULIO ACOSTA,HOMBRE,971551846,-23.395675,-57.434893,AVDA. GUALBERTO CARDUS HUERTA,Productos y Servicios,Universidad Nacional de Concepción,www.unc.edu.py,"SI, Acepto","ODS 1: Fin de la pobreza, ODS 8: Trabajo decente y crecimiento económico"
823,DESPENSAS,MICRO,COPETIN ELI,COPETIN ELI,MUJER,0,-23.39665,-57.44443,MANUEL IRALA ENTRE MIASNICOFF,Productos y Servicios,Universidad Nacional de Concepción,www.unc.edu.py,"SI, Acepto","ODS 1: Fin de la pobreza, ODS 8: Trabajo decente y crecimiento económico"
824,DESPENSAS,MICRO,A TU PERFIL,A TU PERFIL,MUJER,971828272,-23.400284,-57.440965,13 TUYUTI,Productos y Servicios,Universidad Nacional de Concepción,www.unc.edu.py,"SI, Acepto","ODS 1: Fin de la pobreza, ODS 8: Trabajo decente y crecimiento económico"
829,DESPENSAS,MICRO,SUPER SONIC,SUPER SONIC,MUJER,0331 242721,-23.40498,-57.44505,0,Productos y Servicios,Universidad Nacional de Concepción,www.unc.edu.py,"SI, Acepto","ODS 1: Fin de la pobreza, ODS 8: Trabajo decente y crecimiento económico"
830,LAVADEROS DE AUTOVEHICULOS,MICRO,ZONA DIGITAL,ZONA DIGITAL,HOMBRE,0331 240 037,-23.402203,-57.445704,AVENIDA HERMINIO MENDOZA C/ CERRO CORA,Productos y Servicios,Universidad Nacional de Concepción,www.unc.edu.py,"SI, Acepto","ODS 1: Fin de la pobreza, ODS 8: Trabajo decente y crecimiento económico"
831,GOMERIAS,MICRO,A Y B NOVEDADES,A Y B NOVEDADES,MUJER,0331 240145,-23.39758,-57.44818,ASUNCIÓN C/ MIANICOFF,Productos y Servicios,Universidad Nacional de Concepción,www.unc.edu.py,"SI, Acepto","ODS 1: Fin de la pobreza, ODS 8: Trabajo decente y crecimiento económico"
832,AUTOSERVICES,MICRO,COPETIN JAVIERCITO,COPETIN JAVIERCITO,MUJER,981474015,-23.40183,-57.44156,AVENIDA PINEDO C/ HERMINIO MENDOZA,Productos y Servicios,Universidad Nacional de Concepción,www.unc.edu.py,"SI, Acepto","ODS 1: Fin de la pobreza, ODS 8: Trabajo decente y crecimiento económico"
833,ARTICULOS DE CAZA Y PESCA - Representantes,MICRO,PELUQUERIA MATISSE,PELUQUERIA MATISSE,MUJER,986389332,-23.40117,-57.44654,AVENIDA HERMINIO MENDOZA C/ MIRANDA,Productos y Servicios,Universidad Nacional de Concepción,www.unc.edu.py,"SI, Acepto","ODS 1: Fin de la pobreza, ODS 8: Trabajo decente y crecimiento económico"
834,FERRETERIAS,,ALEXIS FOTOGRAFIA,ALEXIS FOTOGRAFIA,HOMBRE,972627701,-23.40559,-57.44449,JUANA DE ALONSO C/ HERMINIO,Productos y Servicios,Universidad Nacional de Concepción,www.unc.edu.py,"SI, Acepto","ODS 1: Fin de la pobreza, ODS 8: Trabajo decente y crecimiento económico"
835,GOMERIAS,MICRO,NOVEDADES VICTORIA,NOVEDADES VICTORIA,MUJER,0331 241172,-23.40116,-57.44256,MONSEÑOR MARIAEVICH C/ 2 DE MAYO,Productos y Servicios,Universidad Nacional de Concepción,www.unc.edu.py,"SI, Acepto","ODS 1: Fin de la pobreza, ODS 8: Trabajo decente y crecimiento económico"
836,DESPENSAS,MICRO,EL VAQUERO,EL VAQUERO,MUJER,0331 240041,-23.39551,-57.44065,MONSEÑOR BOGARIN E/ 2 DE MAYO,Productos y Servicios,Universidad Nacional de Concepción,www.unc.edu.py,"SI, Acepto","ODS 1: Fin de la pobreza, ODS 8: Trabajo decente y crecimiento económico"
837,ROPERIAS,MICRO,POLLERIA TIA ROSI,POLLERIA TIA ROSI,MUJER,973255375,-23.40024,-57.44141,AVENIDA PINEDO E/ MONSEÑOR BOGARIN,Productos y Servicios,Universidad Nacional de Concepción,www.unc.edu.py,"SI, Acepto","ODS 1: Fin de la pobreza, ODS 8: Trabajo decente y crecimiento económico"
838,BARES Y COPETINES,MICRO,FABI FER,FABI FER,MUJER,0331 243596,-23.40117,-57.44654,ASUNCIÓN C/ MIANICOFF,Productos y Servicios,Universidad Nacional de Concepción,www.unc.edu.py,"SI, Acepto","ODS 1: Fin de la pobreza, ODS 8: Trabajo decente y crecimiento económico"
839,RAMOS GENERALES -Ver: Almacenes Ramos Generales,MICRO,DESPENSA DANIEL,DESPENSA DANIEL,HOMBRE,0331 240012,-23.40117,-57.44654,BOGARIN C/ MIANICOFD,Productos y Servicios,Universidad Nacional de Concepción,www.unc.edu.py,"SI, Acepto","ODS 1: Fin de la pobreza, ODS 8: Trabajo decente y crecimiento económico"
840,DESPENSAS,MICRO,PELUQUERIA ZULLY,PELUQUERIA ZULLY,MUJER,0331 240012,-23.40117,-57.44654,BOGARIN C/MIANICOFF,Productos y Servicios,Universidad Nacional de Concepción,www.unc.edu.py,"SI, Acepto","ODS 1: Fin de la pobreza, ODS 8: Trabajo decente y crecimiento económico"
841,DESPENSAS,MICRO,ALMACEN ODI,ALMACEN ODI,MUJER,972429417,-23.4033,-57.49639,ANIBAL MARICEBICH E/ MIANICOFF,Productos y Servicios,Universidad Nacional de Concepción,www.unc.edu.py,"SI, Acepto","ODS 1: Fin de la pobreza, ODS 8: Trabajo decente y crecimiento económico"
842,BARES Y COPETINES,,HOSPEDAJE Y DESPENSA RIVAS,HOSPEDAJE Y DESPENSA RIVAS,,0973108780 - 0331 242684,-23.39758,-57.44818,ASUNCIÓN C/ MIANICOFF,Productos y Servicios,Universidad Nacional de Concepción,www.unc.edu.py,"SI, Acepto","ODS 1: Fin de la pobreza, ODS 8: Trabajo decente y crecimiento económico"
843,CARNICERIAS,,COPETIN ANSELMO,COPETIN ANSELMO,,,-23.39758,-57.44818,ASUNCIÓN C/ MIANICOFF,Productos y Servicios,Universidad Nacional de Concepción,www.unc.edu.py,"SI, Acepto","ODS 1: Fin de la pobreza, ODS 8: Trabajo decente y crecimiento económico"
844,FERRETERIAS,,BODEGA LA FUENTE,BODEGA LA FUENTE,,,-23.402962,-57.442832,AVENIDA PINEDO C/ HERMINIO MENDOZA,Productos y Servicios,Universidad Nacional de Concepción,www.unc.edu.py,"SI, Acepto","ODS 1: Fin de la pobreza, ODS 8: Trabajo decente y crecimiento económico"
845,BOUTIQUES,MICRO,DESPENSA M,DESPENSA M,MUJER,0,-23.39765,-57.44824,ASUNCIÓN C/ JORGE S. MIRANDA,Productos y Servicios,Universidad Nacional de Concepción,www.unc.edu.py,"SI, Acepto","ODS 1: Fin de la pobreza, ODS 8: Trabajo decente y crecimiento económico"
846,PRENDAS - Ver. Ropas,MICRO,TALLER SANTIAGO BENÍTEZ S.B.R,TALLER SANTIAGO BENÍTEZ S.B.R,HOMBRE,971807495,-23.40965,-57.43774,ASUNCIÓN / FRANCISCO BERNAL,Productos y Servicios,Universidad Nacional de Concepción,www.unc.edu.py,"SI, Acepto","ODS 1: Fin de la pobreza, ODS 8: Trabajo decente y crecimiento económico"
847,SEGUROS - Agentes de,,BODEGA SAN JOSE,BODEGA SAN JOSE,,,-23.40117,-57.44654,BOGARIN C/ JUANA DE ALONSO,Productos y Servicios,Universidad Nacional de Concepción,www.unc.edu.py,"SI, Acepto","ODS 1: Fin de la pobreza, ODS 8: Trabajo decente y crecimiento económico"
849,INSTITUTOS DE ENSENANZA,MICRO,TAPICERIA,TAPICERIA,HOMBRE,976117662,-23.40198,-57.44269,2 DE MAYO C/ HERMINIO MENDOZA,Productos y Servicios,Universidad Nacional de Concepción,www.unc.edu.py,"SI, Acepto","ODS 1: Fin de la pobreza, ODS 8: Trabajo decente y crecimiento económico"
851,PELUQUERIAS,,POLLERIA ÑA LINA,POLLERIA ÑA LINA,,,-23.402883,-57.441716,AVENIDA PINEDO C/ HERMINIO MENDOZA,Productos y Servicios,Universidad Nacional de Concepción,www.unc.edu.py,"SI, Acepto","ODS 1: Fin de la pobreza, ODS 8: Trabajo decente y crecimiento económico"
854,RESTAURANTES,MICRO,COPETIN MAXI,COPETIN MAXI,MUJER,983815635,-23.40113,-54.44213,MONSEÑOR ANIBAL MARISEVICH C/ AVENIDA PINEDO,Productos y Servicios,Universidad Nacional de Concepción,www.unc.edu.py,"SI, Acepto","ODS 1: Fin de la pobreza, ODS 8: Trabajo decente y crecimiento económico"
855,AUTOMOTORES - Talleres Mecanicos,MICRO,DESPENSA CASA LINA,DESPENSA CASA LINA,MUJER,331242807,-23.408437,-57.43912,MONSEÑOR BOGARIN C/ FRANCISCO BERNAL,Productos y Servicios,Universidad Nacional de Concepción,www.unc.edu.py,"SI, Acepto","ODS 1: Fin de la pobreza, ODS 8: Trabajo decente y crecimiento económico"
856,SERVICIOS DE COMIDA,,PELUQUERIA FRS UNISEX,PELUQUERIA FRS UNISEX,,0331 40547,-23.40583,-57.44439,AVENIDA HERMINIO MENDOZA C/ 2 DE MAYO,Productos y Servicios,Universidad Nacional de Concepción,www.unc.edu.py,"SI, Acepto","ODS 1: Fin de la pobreza, ODS 8: Trabajo decente y crecimiento económico"
857,COMIDAS - Servicios de - Ver: Servicios de Comida,MICRO,HN TERMINAL,HN TERMINAL,ORGANIZACION,0331 241908,-23.4033,-57.44639,ASUNCIÓN E/ JUANA DE ALONSO,Productos y Servicios,Universidad Nacional de Concepción,www.unc.edu.py,"SI, Acepto","ODS 1: Fin de la pobreza, ODS 8: Trabajo decente y crecimiento económico"
858,FARMACIAS,MICRO,AUTOSERVICE PATRI,AUTOSERVICE PATRI,MUJER,331241735,-23.408437,-57.43912,MONSEÑOR MARICEVICH FLEITAS,Productos y Servicios,Universidad Nacional de Concepción,www.unc.edu.py,"SI, Acepto","ODS 1: Fin de la pobreza, ODS 8: Trabajo decente y crecimiento económico"
859,ELECTRONICA - Instalaciones,MICRO,HOSPEDAJE ARTURO,HOSPEDAJE ARTURO,MUJER,0331 240750,-23.40117,-57.44654,ASUNCIÓN C/ MIANICOFF,Productos y Servicios,Universidad Nacional de Concepción,www.unc.edu.py,"SI, Acepto","ODS 1: Fin de la pobreza, ODS 8: Trabajo decente y crecimiento económico"
860,BARES Y COPETINES,MICRO,DESPENSA ADRI,DESPENSA ADRI,MUJER,331243119,-23.408437,-57.43912,1RO DE MARZO / ASUNCIÓN,Productos y Servicios,Universidad Nacional de Concepción,www.unc.edu.py,"SI, Acepto","ODS 1: Fin de la pobreza, ODS 8: Trabajo decente y crecimiento económico"
861,BODEGAS,MICRO,TALLER DE MOTOS AVENIDA,TALLER DE MOTOS AVENIDA,HOMBRE,0982 864706,-23.40059,-57.4415,AVENIDA PINEDO C/ MONSEÑOR MARISEVICH,Productos y Servicios,Universidad Nacional de Concepción,www.unc.edu.py,"SI, Acepto","ODS 1: Fin de la pobreza, ODS 8: Trabajo decente y crecimiento económico"
862,AUTOMOTORES - Compra-Ventas,MICRO,DESPENSA GALEANO,DESPENSA GALEANO,MUJER,975299405,-23.39978,-57.44388,ANDRES MIANICOFF C/ ASUNCIÓN,Productos y Servicios,Universidad Nacional de Concepción,www.unc.edu.py,"SI, Acepto","ODS 1: Fin de la pobreza, ODS 8: Trabajo decente y crecimiento económico"
863,CARNICERIAS,MICRO,COPETIN AVENIDA,COPETIN AVENIDA,HOMBRE,975795889,-23.408437,-57.43912,AV. HERMINIO MENDEZO,Productos y Servicios,Universidad Nacional de Concepción,www.unc.edu.py,"SI, Acepto","ODS 1: Fin de la pobreza, ODS 8: Trabajo decente y crecimiento económico"
864,BODEGAS,,PELUQUERIA MODA Y BELLEZA,PELUQUERIA MODA Y BELLEZA,,,-23.40017,-57.44319,SEÑOR BOGARIN C/ PROF. MIANICOFF,Productos y Servicios,Universidad Nacional de Concepción,www.unc.edu.py,"SI, Acepto","ODS 1: Fin de la pobreza, ODS 8: Trabajo decente y crecimiento económico"
865,MOTOCICLETAS,MICRO,PELUQUERIA DARA,PELUQUERIA DARA,MUJER,971371925,-23.4033,-57.44639,BOGARIN C/ ANDRES MIANICOFF,Productos y Servicios,Universidad Nacional de Concepción,www.unc.edu.py,"SI, Acepto","ODS 1: Fin de la pobreza, ODS 8: Trabajo decente y crecimiento económico"
866,MOTOCICLETAS - Repuestos y Accesorios,MICRO,AUTOSERVICE GLORIA,AUTOSERVICE GLORIA,MUJER,0331 242818,-23.40541,-57.44545,AVENIDA HERMINIO MENDOZA C/ JUANA DE ALONSO,Productos y Servicios,Universidad Nacional de Concepción,www.unc.edu.py,"SI, Acepto","ODS 1: Fin de la pobreza, ODS 8: Trabajo decente y crecimiento económico"
867,AUTOSERVICES,MICRO,DESPENSA FIDELINA YRIGOYEN,DESPENSA FIDELINA YRIGOYEN,MUJER,0,-23.405364,-57.434721,ISMAEL GONZÁLEZ / MONSEÑOR BOGARIN,Productos y Servicios,Universidad Nacional de Concepción,www.unc.edu.py,"SI, Acepto","ODS 1: Fin de la pobreza, ODS 8: Trabajo decente y crecimiento económico"
868,AUTOMOTORES - Repuestos y Accesorios,MICRO,TORNERIA SAN GERARDO,TORNERIA SAN GERARDO,HOMBRE,971694358,-23.408594,-57.445793,GENERAL DÍAZ C/ HERMINIO MENDOZA,Productos y Servicios,Universidad Nacional de Concepción,www.unc.edu.py,"SI, Acepto","ODS 1: Fin de la pobreza, ODS 8: Trabajo decente y crecimiento económico"
869,DESPENSAS,MICRO,JOELITO,JOELITO,MUJER,971678375,-23.408437,-57.43912,AVDA. BOQUERÓN Y JOSÉ ROMAÑACH,Productos y Servicios,Universidad Nacional de Concepción,www.unc.edu.py,"SI, Acepto","ODS 1: Fin de la pobreza, ODS 8: Trabajo decente y crecimiento económico"
870,ARTICULOS ESCOLARES,MICRO,COMERCIAL GÓMEZ,COMERCIAL GÓMEZ,MUJER,975247170,-23.40202,-57.4265,AVDA. BOQUERÓN Y JOSÉ ROMAÑACH Y SASTRE,Productos y Servicios,Universidad Nacional de Concepción,www.unc.edu.py,"SI, Acepto","ODS 1: Fin de la pobreza, ODS 8: Trabajo decente y crecimiento económico"
871,DESPENSAS,MICRO,PEKE SERIGRAFÍA,PEKE SERIGRAFÍA,HOMBRE,971844140,-23.39979,-57.42879,JULIA MIRANDA CUETO Y TTE. ADOLFO,Productos y Servicios,Universidad Nacional de Concepción,www.unc.edu.py,"SI, Acepto","ODS 1: Fin de la pobreza, ODS 8: Trabajo decente y crecimiento económico"
872,TORNERIAS MECANICAS,MICRO,SOLE,SOLE,HOMBRE,986825526,-23.3991,-57.42652,SOLDADO DESCONOCIDO Y JULIA MIRANDA CUETO,Productos y Servicios,Universidad Nacional de Concepción,www.unc.edu.py,"SI, Acepto","ODS 1: Fin de la pobreza, ODS 8: Trabajo decente y crecimiento económico"
873,DESPENSAS,MICRO,CM LIBRERÍA,CM LIBRERÍA,MUJER,971834110,-23.39819,-57.42891,JULIA MIRANDA Y MADRINA DE GUERRA,Productos y Servicios,Universidad Nacional de Concepción,www.unc.edu.py,"SI, Acepto","ODS 1: Fin de la pobreza, ODS 8: Trabajo decente y crecimiento económico"
874,DESPENSAS,MICRO,PASTELERÍA SAN MIGUEL,PASTELERÍA SAN MIGUEL,MUJER,0,-23.4017,-57.42868,JULIA MIRANDA Y AVDA.BOQUERÓN,Productos y Servicios,Universidad Nacional de Concepción,www.unc.edu.py,"SI, Acepto","ODS 1: Fin de la pobreza, ODS 8: Trabajo decente y crecimiento económico"
875,DESPENSAS,MICRO,JDS,JDS,MUJER,984284891,-23.40058,-57.42877,JULIA MIRANDA CUETO Y SOLDADO DESCONOCIDO,Productos y Servicios,Universidad Nacional de Concepción,www.unc.edu.py,"SI, Acepto","ODS 1: Fin de la pobreza, ODS 8: Trabajo decente y crecimiento económico"
877,MOTOCICLETAS - Taller,MICRO,DESPENSA TOTAL,DESPENSA TOTAL,HOMBRE,973346888,-23.408594,-57.447767,ISMAEL GONZÁLEZ J/ MONSEÑOR BOGARIN,Productos y Servicios,Universidad Nacional de Concepción,www.unc.edu.py,"SI, Acepto","ODS 1: Fin de la pobreza, ODS 8: Trabajo decente y crecimiento económico"
883,BODEGAS,,DESPENSA CARDOZO,DESPENSA CARDOZO,HOMBRE,331241008,-23.408437,-57.43912,ASUNCIÓN C / JUANA DE ORTELLADO,Productos y Servicios,Universidad Nacional de Concepción,www.unc.edu.py,"SI, Acepto","ODS 1: Fin de la pobreza, ODS 8: Trabajo decente y crecimiento económico"
885,LAVADEROS DE AUTOVEHICULOS,MICRO,KUREI,KUREI,HOMBRE,971290713,-23.40419,-57.42864,VILLARRICA/ OCTAVO PROYECTADA,Productos y Servicios,Universidad Nacional de Concepción,www.unc.edu.py,"SI, Acepto","ODS 1: Fin de la pobreza, ODS 8: Trabajo decente y crecimiento económico"
886,GIMNASIOS,MICRO,COMERCIAL ADONAI,COMERCIAL ADONAI,MUJER,972460605,-23.408437,-57.43912,ZONA TEMINAL,Productos y Servicios,Universidad Nacional de Concepción,www.unc.edu.py,"SI, Acepto","ODS 1: Fin de la pobreza, ODS 8: Trabajo decente y crecimiento económico"
887,MOTOCICLETAS - Taller,MICRO,ÑA GENARA,ÑA GENARA,MUJER,973465620,-23.408437,-57.43912,ZONA TERMINAL,Productos y Servicios,Universidad Nacional de Concepción,www.unc.edu.py,"SI, Acepto","ODS 1: Fin de la pobreza, ODS 8: Trabajo decente y crecimiento económico"
888,LAVADEROS DE AUTOVEHICULOS,MICRO,ÑA SELVA,ÑA SELVA,MUJER,971612252,-23.408437,-57.43912,ZONA TERMIAL,Productos y Servicios,Universidad Nacional de Concepción,www.unc.edu.py,"SI, Acepto","ODS 1: Fin de la pobreza, ODS 8: Trabajo decente y crecimiento económico"
889,AUDIO Y ACCESORIOS PARA VEHICULOS,MICRO,ANIBAL CACERES,ANIBAL CACERES,HOMBRE,971479104,-23.39861,-57.4445,ZONA TEMINAL,Productos y Servicios,Universidad Nacional de Concepción,www.unc.edu.py,"SI, Acepto","ODS 1: Fin de la pobreza, ODS 8: Trabajo decente y crecimiento económico"
890,DESPENSAS,MICRO,MECERIA ROCIO,MECERIA ROCIO,MUJER,871821542,-23.408437,-57.43912,ZONA TERMINAL,Productos y Servicios,Universidad Nacional de Concepción,www.unc.edu.py,"SI, Acepto","ODS 1: Fin de la pobreza, ODS 8: Trabajo decente y crecimiento económico"
891,RECEPCIONES - Servicios para,MICRO,RIVA,RIVA,HOMBRE,982930674,-23.40173,-57.43806,TENIENTE CABRERA ENTRE MARCELINO MEDINA Y DOCTOR FRANCIA,Productos y Servicios,Universidad Nacional de Concepción,www.unc.edu.py,"SI, Acepto","ODS 1: Fin de la pobreza, ODS 8: Trabajo decente y crecimiento económico"
893,BARES Y COPETINES,PEQUEÑA,RINCON NORTEÑO,RINCON NORTEÑO,HOMBRE,243627,-23.4052,-57.43775,DR. FRANCIA Y SANTOS CANILLAS,Productos y Servicios,Universidad Nacional de Concepción,www.unc.edu.py,"SI, Acepto","ODS 1: Fin de la pobreza, ODS 8: Trabajo decente y crecimiento económico"
894,HERRERIAS ARTISTICAS,MICRO,"COMERCIAL ""JB","COMERCIAL ""JB",ORGANIZACION,982433393,-23.39861,-57.4445,ZONA TERMINAL,Productos y Servicios,Universidad Nacional de Concepción,www.unc.edu.py,"SI, Acepto","ODS 1: Fin de la pobreza, ODS 8: Trabajo decente y crecimiento económico"
895,DESPENSAS,MICRO,ERE ERA LA BOMBA,ERE ERA LA BOMBA,HOMBRE,0,-23.40539,-57.43645,YTORORO Y SARGENTO PIRELLI,Productos y Servicios,Universidad Nacional de Concepción,www.unc.edu.py,"SI, Acepto","ODS 1: Fin de la pobreza, ODS 8: Trabajo decente y crecimiento económico"
896,AUTOMOTORES - Repuestos Usados,MICRO,COPETIN EMI,COPETIN EMI,MUJER,0,-23.408437,-57.43912,ZONA TERMINAL,Productos y Servicios,Universidad Nacional de Concepción,www.unc.edu.py,"SI, Acepto","ODS 1: Fin de la pobreza, ODS 8: Trabajo decente y crecimiento económico"
897,MOTOCICLETAS - Taller,MICRO,ÑA OTILIA,ÑA OTILIA,MUJER,0,-23.408437,-57.43912,ZONA TERMINAL,Productos y Servicios,Universidad Nacional de Concepción,www.unc.edu.py,"SI, Acepto","ODS 1: Fin de la pobreza, ODS 8: Trabajo decente y crecimiento económico"
898,CARBON VEGETAL - Distribuidores,MICRO,LAS MELLIZAS,LAS MELLIZAS,MUJER,984921011,-23.401209,-57.445117,ZONA TERMINAL,Productos y Servicios,Universidad Nacional de Concepción,www.unc.edu.py,"SI, Acepto","ODS 1: Fin de la pobreza, ODS 8: Trabajo decente y crecimiento económico"
899,DESPENSAS,MICRO,HOTEL C.C.,HOTEL C.C.,HOMBRE,(0331) 243253,-23.413202,-57.438991,CNEL. PANCHITO LOPEZ ESQ/PROF. GUILLERMO CABRAL,Productos y Servicios,Universidad Nacional de Concepción,www.unc.edu.py,"SI, Acepto","ODS 1: Fin de la pobreza, ODS 8: Trabajo decente y crecimiento económico"
900,GOMERIAS,MICRO,ELECTRONICA ELOY,ELECTRONICA ELOY,HOMBRE,(0982)348478,-23.410051,-57.440085,,Productos y Servicios,Universidad Nacional de Concepción,www.unc.edu.py,"SI, Acepto","ODS 1: Fin de la pobreza, ODS 8: Trabajo decente y crecimiento económico"
901,METALURGICAS,MEDIANA,COMERCIAL LA CHAQUEÑA,COMERCIAL LA CHAQUEÑA,HOMBRE,240330,-23.406839,-57.439613,YTORORO Y SANTOS CANILLAS,Productos y Servicios,Universidad Nacional de Concepción,www.unc.edu.py,"SI, Acepto","ODS 1: Fin de la pobreza, ODS 8: Trabajo decente y crecimiento económico"
902,DESPENSAS DE BEBIDAS,MICRO,SANTA ISABEL,SANTA ISABEL,HOMBRE,242195,-23.405519,-57.43883,PROFESOR CABRAL CASI YTORORO,Productos y Servicios,Universidad Nacional de Concepción,www.unc.edu.py,"SI, Acepto","ODS 1: Fin de la pobreza, ODS 8: Trabajo decente y crecimiento económico"
903,LIBRERIAS,MICRO,EL EMPRENDEDOR,EL EMPRENDEDOR,HOMBRE,981495297,-23.40521,-57.43888,PROFESOR CABRAL CASI YTORORO,Productos y Servicios,Universidad Nacional de Concepción,www.unc.edu.py,"SI, Acepto","ODS 1: Fin de la pobreza, ODS 8: Trabajo decente y crecimiento económico"
904,CELULAR - Aparatos,MICRO,CANTERO,CANTERO,HOMBRE,983544954,-23.40559,-57.43821,YTORO CASI PADRE MARCELINO MEDINA,Productos y Servicios,Universidad Nacional de Concepción,www.unc.edu.py,"SI, Acepto","ODS 1: Fin de la pobreza, ODS 8: Trabajo decente y crecimiento económico"
905,ELECTROMECANICA,MICRO,RAMÓN,RAMÓN,HOMBRE,0,-23.42068,-57.44207,MADRE C ONCEPCIONERA,Productos y Servicios,Universidad Nacional de Concepción,www.unc.edu.py,"SI, Acepto","ODS 1: Fin de la pobreza, ODS 8: Trabajo decente y crecimiento económico"
906,"ARTICULOS PARA FERRETERIA - Ver: Ferreteria, Art. para",MICRO,EL PROGRESO,EL PROGRESO,MUJER,(0331) 242272,-23.40761,-57.441577,GENERAL FRANCO C/ AV. AUGUSTIN FERNANDO DE PINEDO,Productos y Servicios,Universidad Nacional de Concepción,www.unc.edu.py,"SI, Acepto","ODS 1: Fin de la pobreza, ODS 8: Trabajo decente y crecimiento económico"
907,COMPUTADORAS - Ver: Informatica,MICRO,V Y M,V Y M,HOMBRE,972691015,-23.42335,-57.44413,ROMUALDO IRIGOYEN,Productos y Servicios,Universidad Nacional de Concepción,www.unc.edu.py,"SI, Acepto","ODS 1: Fin de la pobreza, ODS 8: Trabajo decente y crecimiento económico"
908,AGENDAS ELECTRONICAS,MICRO,FRANEL,FRANEL,HOMBRE,240113,-23.40341,-57.4379,AVENIDA BOQUERON,Productos y Servicios,Universidad Nacional de Concepción,www.unc.edu.py,"SI, Acepto","ODS 1: Fin de la pobreza, ODS 8: Trabajo decente y crecimiento económico"
909,PRENDAS - Ver. Ropas,MICRO,ARTE COLOR,ARTE COLOR,HOMBRE,(0982) 270138,-23.407551,-57.441448,AVDA. PINEDO ESQ. PTE FRANCO,Productos y Servicios,Universidad Nacional de Concepción,www.unc.edu.py,"SI, Acepto","ODS 1: Fin de la pobreza, ODS 8: Trabajo decente y crecimiento económico"
910,BARES Y COPETINES,MICRO,KATY COPETIN,KATY COPETIN,MUJER,982741568,-23.404635,-57.447003,EUGENIO AGUERO C/ ITURBE,Productos y Servicios,Universidad Nacional de Concepción,www.unc.edu.py,"SI, Acepto","ODS 1: Fin de la pobreza, ODS 8: Trabajo decente y crecimiento económico"
911,PELUQUERIAS,MICRO,CAAGUAZU,CAAGUAZU,HOMBRE,981779123,-23.404849,-57.439909,SCREIBERT Y DOCTOR FRANCIA,Productos y Servicios,Universidad Nacional de Concepción,www.unc.edu.py,"SI, Acepto","ODS 1: Fin de la pobreza, ODS 8: Trabajo decente y crecimiento económico"
912,MERCERIAS,MICRO,SAN ANDANIO,SAN ANDANIO,MUJER,0,-23.42174,-57.44231,BASILIO QUEVEDO SÉPTIMA PROYECTADA,Productos y Servicios,Universidad Nacional de Concepción,www.unc.edu.py,"SI, Acepto","ODS 1: Fin de la pobreza, ODS 8: Trabajo decente y crecimiento económico"
913,CARNICERIAS,MICRO,PIOLIN,PIOLIN,HOMBRE,982902614,-23.40429,-57.4389,DOCTOR FRANCIA,Productos y Servicios,Universidad Nacional de Concepción,www.unc.edu.py,"SI, Acepto","ODS 1: Fin de la pobreza, ODS 8: Trabajo decente y crecimiento económico"
914,CIENCIAS CONTABLES Y ADMINISTRATIVAS - Ensenanza Superior,MICRO,DR BURGER PIZZA,DR BURGER PIZZA,HOMBRE,983894503,-23.409608,-57.441705,MARISCAL LOPEZ CASI AVENIDA PINEDO,Productos y Servicios,Universidad Nacional de Concepción,www.unc.edu.py,"SI, Acepto","ODS 1: Fin de la pobreza, ODS 8: Trabajo decente y crecimiento económico"
915,AGENCIAS DE VIAJES Y TURISMO,MICRO,ANA COLLECTION,ANA COLLECTION,MUJER,983345835,-23.409529,-57.441861,MARISCAL LOPEZ CASI AVENIDA PINEDO,Productos y Servicios,Universidad Nacional de Concepción,www.unc.edu.py,"SI, Acepto","ODS 1: Fin de la pobreza, ODS 8: Trabajo decente y crecimiento económico"
916,PASTELERIAS,MICRO,SIBARITA MODAS,SIBARITA MODAS,MUJER,240193,-23.4024,-57.4359,AVENIDA BOQUERON Y TENIENTE CABRERA,Productos y Servicios,Universidad Nacional de Concepción,www.unc.edu.py,"SI, Acepto","ODS 1: Fin de la pobreza, ODS 8: Trabajo decente y crecimiento económico"
917,BARES Y COPETINES,MICRO,BODEGA MORAL,BODEGA MORAL,HOMBRE,973104286,-23.408574,-57.428863,MAYOR LORENZO MEDINA Y PADRE QUEIROZ CANDIA,Productos y Servicios,Universidad Nacional de Concepción,www.unc.edu.py,"SI, Acepto","ODS 1: Fin de la pobreza, ODS 8: Trabajo decente y crecimiento económico"
918,PELUQUERIAS,MICRO,DESPENSA REBECA,DESPENSA REBECA,HOMBRE,240283,-23.42345,-57.44425,AVENIDA PINEDO,Productos y Servicios,Universidad Nacional de Concepción,www.unc.edu.py,"SI, Acepto","ODS 1: Fin de la pobreza, ODS 8: Trabajo decente y crecimiento económico"
919,DESPENSAS,MICRO,ACTUAL MODAS,ACTUAL MODAS,MUJER,971837850,-23.405357,-57.440068,SCREIBERT ENTRE DOCTOR FRANCIA Y PADRE MARCELINO MEDINA,Productos y Servicios,Universidad Nacional de Concepción,www.unc.edu.py,"SI, Acepto","ODS 1: Fin de la pobreza, ODS 8: Trabajo decente y crecimiento económico"
920,HOSPEDAJES,MICRO,BODEGA MONTANIA,BODEGA MONTANIA,MUJER,0,-23.409283,-57.429099,RESIDENTA E/ QUEIROZ CANDIA,Productos y Servicios,Universidad Nacional de Concepción,www.unc.edu.py,"SI, Acepto","ODS 1: Fin de la pobreza, ODS 8: Trabajo decente y crecimiento económico"
921,DESPENSAS,MICRO,AGRINCO,AGRINCO,HOMBRE,331243177,-23.408476,-57.442296,MCAL. ESTIGARRIBIA C/ AVDA. PINEDO,Productos y Servicios,Universidad Nacional de Concepción,www.unc.edu.py,"SI, Acepto","ODS 1: Fin de la pobreza, ODS 8: Trabajo decente y crecimiento económico"
922,BODEGAS,MICRO,COPETIN LA VICTORIA,COPETIN LA VICTORIA,MUJER,0,-23.409972,-57.430515,BERNARDINO CABALLERO Y DIAGONAL IBAÑEZ ROJAS,Productos y Servicios,Universidad Nacional de Concepción,www.unc.edu.py,"SI, Acepto","ODS 1: Fin de la pobreza, ODS 8: Trabajo decente y crecimiento económico"
923,DESPENSAS,MICRO,FREESIA PERFUMERIA,FREESIA PERFUMERIA,MUJER,240996,-23.40761,-57.442918,PTE FRANCO C/ YEGROS,Productos y Servicios,Universidad Nacional de Concepción,www.unc.edu.py,"SI, Acepto","ODS 1: Fin de la pobreza, ODS 8: Trabajo decente y crecimiento económico"
924,MOTORES MARINOS - Reparaciones,MICRO,ACUARIO,ACUARIO,HOMBRE,242796,-23.407856,-57.443143,PTE FRANCO C/ 14 DE MAYO,Productos y Servicios,Universidad Nacional de Concepción,www.unc.edu.py,"SI, Acepto","ODS 1: Fin de la pobreza, ODS 8: Trabajo decente y crecimiento económico"
925,BODEGAS,PEQUEÑA,CURSILLO CEPIM - PARODI,CURSILLO CEPIM - PARODI,HOMBRE,986844844,-23.403786,-57.446208,CERRO CORA C/ TTE FLORENCIO GOMEZ,Productos y Servicios,Universidad Nacional de Concepción,www.unc.edu.py,"SI, Acepto","ODS 1: Fin de la pobreza, ODS 8: Trabajo decente y crecimiento económico"
926,AUTOSERVICES,MICRO,DESPENSA SANTA ROSA,DESPENSA SANTA ROSA,HOMBRE,976395940,-23.410218,-57.429893,BERNARDINO CABALLERO C/ SOSA GAONA,Productos y Servicios,Universidad Nacional de Concepción,www.unc.edu.py,"SI, Acepto","ODS 1: Fin de la pobreza, ODS 8: Trabajo decente y crecimiento económico"
927,CLINICA MEDICA - Medicos,MICRO,DESPENSA LA GALLINITA,DESPENSA LA GALLINITA,MUJER,242431,-23.407885,-57.443358,PTE. FRANCO C/ 14 DE MAYO,Productos y Servicios,Universidad Nacional de Concepción,www.unc.edu.py,"SI, Acepto","ODS 1: Fin de la pobreza, ODS 8: Trabajo decente y crecimiento económico"
928,TAPICERIAS - Muebles,MICRO,DESPENSA LOS ENANOS,DESPENSA LOS ENANOS,MUJER,982102919,-23.409775,-57.428863,PADRE QUEIROZ CANDIA,Productos y Servicios,Universidad Nacional de Concepción,www.unc.edu.py,"SI, Acepto","ODS 1: Fin de la pobreza, ODS 8: Trabajo decente y crecimiento económico"
929,BEBIDAS - Distribuidores,MICRO,DESPENSA COLMAN,DESPENSA COLMAN,MUJER,242021,-23.409913,-57.431138,AV. CAYO SOLTERO MILTOS,Productos y Servicios,Universidad Nacional de Concepción,www.unc.edu.py,"SI, Acepto","ODS 1: Fin de la pobreza, ODS 8: Trabajo decente y crecimiento económico"
930,ALMACENES RAMOS GENERALES,MICRO,ETOCELL,ETOCELL,HOMBRE,241446,-23.407886,-57.443454,PTE. FRANCO C/ 14 DE MAYO,Productos y Servicios,Universidad Nacional de Concepción,www.unc.edu.py,"SI, Acepto","ODS 1: Fin de la pobreza, ODS 8: Trabajo decente y crecimiento económico"
931,ALMACENES RAMOS GENERALES,MICRO,EL CAMPEÓN,EL CAMPEÓN,MUJER,976522948,-23.4117,-57.43397,,Productos y Servicios,Universidad Nacional de Concepción,www.unc.edu.py,"SI, Acepto","ODS 1: Fin de la pobreza, ODS 8: Trabajo decente y crecimiento económico"
932,CLINICAS MEDICAS,MICRO,DESPENSA CAACUPR,DESPENSA CAACUPR,MUJER,984789502,-23.4117,-57.43397,0,Productos y Servicios,Universidad Nacional de Concepción,www.unc.edu.py,"SI, Acepto","ODS 1: Fin de la pobreza, ODS 8: Trabajo decente y crecimiento económico"
933,FERRETERIAS,MICRO,FOTO SOL,FOTO SOL,HOMBRE,331241797,-23.402568,-57.445338,AVDA. HERMINIO MENDOZA C/ GRAL GARAY,Productos y Servicios,Universidad Nacional de Concepción,www.unc.edu.py,"SI, Acepto","ODS 1: Fin de la pobreza, ODS 8: Trabajo decente y crecimiento económico"
934,CAMIONES - Taller Mecanico,MICRO,COMERCIAL ÑA ESTELA,COMERCIAL ÑA ESTELA,MUJER,0,-23.4117,-57.43397,,Productos y Servicios,Universidad Nacional de Concepción,www.unc.edu.py,"SI, Acepto","ODS 1: Fin de la pobreza, ODS 8: Trabajo decente y crecimiento económico"
935,AUTOGAS - Surtidores,MICRO,DESPENSA NEBLINA,DESPENSA NEBLINA,MUJER,975863409,-23.41405,-57.43257,,Productos y Servicios,Universidad Nacional de Concepción,www.unc.edu.py,"SI, Acepto","ODS 1: Fin de la pobreza, ODS 8: Trabajo decente y crecimiento económico"
936,HOSPEDAJES,MICRO,DESPENSA LUCY,DESPENSA LUCY,MUJER,0,-23.41294,-57.42768,0,Productos y Servicios,Universidad Nacional de Concepción,www.unc.edu.py,"SI, Acepto","ODS 1: Fin de la pobreza, ODS 8: Trabajo decente y crecimiento económico"
937,ALMACENES RAMOS GENERALES,MICRO,R Y J MODAS,R Y J MODAS,HOMBRE,984266161,-23.407845,-57.444463,PTE. FRANCO C/ 14 DE MAYO,Productos y Servicios,Universidad Nacional de Concepción,www.unc.edu.py,"SI, Acepto","ODS 1: Fin de la pobreza, ODS 8: Trabajo decente y crecimiento económico"
938,MOTOCICLETAS - Taller,MICRO,COMEDOR NILSA,COMEDOR NILSA,MUJER,971838880,-23.409066,-57.431824,BERNARDINO CABALLERO,Productos y Servicios,Universidad Nacional de Concepción,www.unc.edu.py,"SI, Acepto","ODS 1: Fin de la pobreza, ODS 8: Trabajo decente y crecimiento económico"
939,FARMACIAS,MICRO,DESPENSA JP,DESPENSA JP,HOMBRE,971814955,-23.420497,-57.436234,FRAY MIGUEL MARTINEZ,Productos y Servicios,Universidad Nacional de Concepción,www.unc.edu.py,"SI, Acepto","ODS 1: Fin de la pobreza, ODS 8: Trabajo decente y crecimiento económico"
940,DESPENSAS,MICRO,MECANICA AUTOMOTRIZ E INDUSTRIAL DIESEL,MECANICA AUTOMOTRIZ E INDUSTRIAL DIESEL,HOMBRE,331242496,-23.40543,-57.44385,GRAL GARAY 366 C/ OTAÑO,Productos y Servicios,Universidad Nacional de Concepción,www.unc.edu.py,"SI, Acepto","ODS 1: Fin de la pobreza, ODS 8: Trabajo decente y crecimiento económico"
941,COMEDORES,MICRO,CHE KAPE,CHE KAPE,HOMBRE,975249570,-23.41137,-57.43166,FRAY MIGUEL MENDEZ,Productos y Servicios,Universidad Nacional de Concepción,www.unc.edu.py,"SI, Acepto","ODS 1: Fin de la pobreza, ODS 8: Trabajo decente y crecimiento económico"
942,PELUQUERIAS,MICRO,ÑA KIKA,ÑA KIKA,MUJER,973505120,-23.40332,-57.44572,PEDRO JUAN CABALLERO C/ FLORENCIO GOMEZ,Productos y Servicios,Universidad Nacional de Concepción,www.unc.edu.py,"SI, Acepto","ODS 1: Fin de la pobreza, ODS 8: Trabajo decente y crecimiento económico"
943,DESPENSAS,MICRO,BANQUITA,BANQUITA,HOMBRE,973803889,-23.41457,-57.43688,CLAUDIO ACOSTA,Productos y Servicios,Universidad Nacional de Concepción,www.unc.edu.py,"SI, Acepto","ODS 1: Fin de la pobreza, ODS 8: Trabajo decente y crecimiento económico"
944,TORNERIAS MECANICAS,MICRO,SANTA CECILIA,SANTA CECILIA,MUJER,972733642,-23.41777,-57.44211,CLAUDIO ACOSTA Y ANTONIO CABALLERO,Productos y Servicios,Universidad Nacional de Concepción,www.unc.edu.py,"SI, Acepto","ODS 1: Fin de la pobreza, ODS 8: Trabajo decente y crecimiento económico"
945,ALMACENES RAMOS GENERALES,,COMEDOR HETEREI,COMEDOR HETEREI,HOMBRE,0,-23.409027,-57.432125,BERNARDINO CABALLERO,Productos y Servicios,Universidad Nacional de Concepción,www.unc.edu.py,"SI, Acepto","ODS 1: Fin de la pobreza, ODS 8: Trabajo decente y crecimiento económico"
946,ALMACENES RAMOS GENERALES,,DESPENSA DAVID,DESPENSA DAVID,,,-23.41777,-57.442211,,Productos y Servicios,Universidad Nacional de Concepción,www.unc.edu.py,"SI, Acepto","ODS 1: Fin de la pobreza, ODS 8: Trabajo decente y crecimiento económico"
947,CONFECCIONES,,DESPENSA UNIÓN,DESPENSA UNIÓN,HOMBRE,971135161,-23.41291,-57.44117,,Productos y Servicios,Universidad Nacional de Concepción,www.unc.edu.py,"SI, Acepto","ODS 1: Fin de la pobreza, ODS 8: Trabajo decente y crecimiento económico"
948,ALMACENES RAMOS GENERALES,,MINIMERCADO DEL ABASTO,MINIMERCADO DEL ABASTO,HOMBRE,,-23.41137,-57.43166,,Productos y Servicios,Universidad Nacional de Concepción,www.unc.edu.py,"SI, Acepto","ODS 1: Fin de la pobreza, ODS 8: Trabajo decente y crecimiento económico"
949,LIBRERIAS,,DESPENSA DIANA,DESPENSA DIANA,MUJER,331243521,-23.41291,-57.44117,ANTONIO CABALLERO DE AÑANZCO,Productos y Servicios,Universidad Nacional de Concepción,www.unc.edu.py,"SI, Acepto","ODS 1: Fin de la pobreza, ODS 8: Trabajo decente y crecimiento económico"
950,COMEDORES,MICRO,LAVADERO,LAVADERO,HOMBRE,971348343,-23.40498,-57.44505,TTE FLORENCIO GOMEZ,Productos y Servicios,Universidad Nacional de Concepción,www.unc.edu.py,"SI, Acepto","ODS 1: Fin de la pobreza, ODS 8: Trabajo decente y crecimiento económico"
951,ABOGADOS,MICRO,TALLER DE MOTOS PEDRITO,TALLER DE MOTOS PEDRITO,HOMBRE,976902967,-23.40425,-57.43987,SCREIBERT Y DOCTOR FRANCIA,Productos y Servicios,Universidad Nacional de Concepción,www.unc.edu.py,"SI, Acepto","ODS 1: Fin de la pobreza, ODS 8: Trabajo decente y crecimiento económico"
952,ARTICULOS PROMOCIONALES,MICRO,LA BODEGUITA,LA BODEGUITA,MUJER,975292039,-23.40333,-57.44573,TTE FLORENCIO GOMEZ ESQ. ITURBE,Productos y Servicios,Universidad Nacional de Concepción,www.unc.edu.py,"SI, Acepto","ODS 1: Fin de la pobreza, ODS 8: Trabajo decente y crecimiento económico"
953,ALMACENES RAMOS GENERALES,,DON WALTER,DON WALTER,HOMBRE,,-23.40714,-57.44457,GENERAL EUGENIO A GARAY ESQUINA BRASIL,Productos y Servicios,Universidad Nacional de Concepción,www.unc.edu.py,"SI, Acepto","ODS 1: Fin de la pobreza, ODS 8: Trabajo decente y crecimiento económico"
954,BODEGAS,,LAS PULPAS,LAS PULPAS,MUJER,,-23.40776,-57.4438,,Productos y Servicios,Universidad Nacional de Concepción,www.unc.edu.py,"SI, Acepto","ODS 1: Fin de la pobreza, ODS 8: Trabajo decente y crecimiento económico"
955,TEJIDOS DE ALAMBRE - Venta y Colocacion,MICRO,TALLER ALFA,TALLER ALFA,HOMBRE,972401453,-23.40117,-57.44654,CERRO CORÁ C/ AVDA HERMINIO MENDOZA,Productos y Servicios,Universidad Nacional de Concepción,www.unc.edu.py,"SI, Acepto","ODS 1: Fin de la pobreza, ODS 8: Trabajo decente y crecimiento económico"
956,ALMACENES RAMOS GENERALES,PEQUEÑA,PEPES LOMITOS,PEPES LOMITOS,MUJER,241690,-23.404577,-57.438648,GASPAR RODRIGUEZ DE FRANCIA Y REPUBLICA DE COLOMBIA,Productos y Servicios,Universidad Nacional de Concepción,www.unc.edu.py,"SI, Acepto","ODS 1: Fin de la pobreza, ODS 8: Trabajo decente y crecimiento económico"
957,ALMACENES RAMOS GENERALES,MICRO,FOTO SUSY,FOTO SUSY,MUJER,,-23.402588,-57.446673,AVDA HERMINIO MENDOZA C/ CERRO CORA,Productos y Servicios,Universidad Nacional de Concepción,www.unc.edu.py,"SI, Acepto","ODS 1: Fin de la pobreza, ODS 8: Trabajo decente y crecimiento económico"
958,CARNE VACUNA - Distribuidores,,15 AÑOS. NOVIAS,15 AÑOS. NOVIAS,MUJER,,-23.40769,-57.44283,PRESIDENTE FRANCO,Productos y Servicios,Universidad Nacional de Concepción,www.unc.edu.py,"SI, Acepto","ODS 1: Fin de la pobreza, ODS 8: Trabajo decente y crecimiento económico"
959,ALMACENES RAMOS GENERALES,MICRO,EMPANADAS MILE,EMPANADAS MILE,MUJER,984612384,-23.403543,-57.441196,0,Productos y Servicios,Universidad Nacional de Concepción,www.unc.edu.py,"SI, Acepto","ODS 1: Fin de la pobreza, ODS 8: Trabajo decente y crecimiento económico"
960,ALMACENES RAMOS GENERALES,MICRO,M Y A,M Y A,MUJER,985697428,-23.408437,-57.43912,0,Productos y Servicios,Universidad Nacional de Concepción,www.unc.edu.py,"SI, Acepto","ODS 1: Fin de la pobreza, ODS 8: Trabajo decente y crecimiento económico"
961,ACEITES COMESTIBLES - Representantes,,MAC STORE,MAC STORE,HOMBRE,975605760,-23.40759,-57.4421,PRESIDENTE FRANCO,Productos y Servicios,Universidad Nacional de Concepción,www.unc.edu.py,"SI, Acepto","ODS 1: Fin de la pobreza, ODS 8: Trabajo decente y crecimiento económico"
962,CELULAR - Repuestos,MICRO,NEW LOOK COIFFURE,NEW LOOK COIFFURE,,,-23.402332,-57.445933,AVDA HERMINIO MENDOZA C/ CERRO CORÁ,Productos y Servicios,Universidad Nacional de Concepción,www.unc.edu.py,"SI, Acepto","ODS 1: Fin de la pobreza, ODS 8: Trabajo decente y crecimiento económico"
963,BARES Y COPETINES,MICRO,PELUQUERIA PATYSITO,PELUQUERIA PATYSITO,MUJER,973867187,-23.403868,-57.439785,0,Productos y Servicios,Universidad Nacional de Concepción,www.unc.edu.py,"SI, Acepto","ODS 1: Fin de la pobreza, ODS 8: Trabajo decente y crecimiento económico"
964,BARES Y COPETINES,MICRO,BODEGA PATO,BODEGA PATO,HOMBRE,,-23.402632,-57.448052,AVDA HERMINIO MENDOZA E/ PEDRO JUAN CABALLERO,Productos y Servicios,Universidad Nacional de Concepción,www.unc.edu.py,"SI, Acepto","ODS 1: Fin de la pobreza, ODS 8: Trabajo decente y crecimiento económico"
965,ELECTRODOMESTICOS,MICRO,APITA MODAS,APITA MODAS,MUJER,0,-23.406585,-57.439882,PROFESOR GUILLERMO CABRAL CASI PADRE MARCELINO MEDINA,Productos y Servicios,Universidad Nacional de Concepción,www.unc.edu.py,"SI, Acepto","ODS 1: Fin de la pobreza, ODS 8: Trabajo decente y crecimiento económico"
966,ELECTRODOMESTICOS - Reparaciones,MICRO,CAT- CARS,CAT- CARS,HOMBRE,971218776,-23.403759,-57.438766,AVENIDA PINEDO CASI PADRE MARCELINO MEDINA,Productos y Servicios,Universidad Nacional de Concepción,www.unc.edu.py,"SI, Acepto","ODS 1: Fin de la pobreza, ODS 8: Trabajo decente y crecimiento económico"
967,POLARIZADOS - Edificios y Oficinas,MICRO,HELADERIA CHIQUI,HELADERIA CHIQUI,MUJER,973587796,-23.403375,-57.441072,AVENIDA PINEDO CASI PADRE MARCELINOMEDINA,Productos y Servicios,Universidad Nacional de Concepción,www.unc.edu.py,"SI, Acepto","ODS 1: Fin de la pobreza, ODS 8: Trabajo decente y crecimiento económico"
968,SUPERMERCADOS,MICRO,MINIMERCADO AVALOS,MINIMERCADO AVALOS,HOMBRE,976389643,-23.395912,-57.446201,JORGE SEBASTIAN MIRANDA Y OBRERO,Productos y Servicios,Universidad Nacional de Concepción,www.unc.edu.py,"SI, Acepto","ODS 1: Fin de la pobreza, ODS 8: Trabajo decente y crecimiento económico"
969,MERCERIAS,MICRO,FINANCIERA SOLAR SAECA,FINANCIERA SOLAR SAECA,ORGANIZACION,331243466,-23.40765,-57.44271,MARISCAL ESTIGARRIBIA/YEGROS,Productos y Servicios,Universidad Nacional de Concepción,www.unc.edu.py,"SI, Acepto","ODS 1: Fin de la pobreza, ODS 8: Trabajo decente y crecimiento económico"
970,ROPAS SEMI-NUEVAS,MICRO,DESPENSA Y CARNICERIA E Y M,DESPENSA Y CARNICERIA E Y M,MUJER,986398506,-23.396069,-57.447145,PROF. MERALDA DE ORTELLADO Y OBRERO,Productos y Servicios,Universidad Nacional de Concepción,www.unc.edu.py,"SI, Acepto","ODS 1: Fin de la pobreza, ODS 8: Trabajo decente y crecimiento económico"
971,BARES Y COPETINES,MICRO,EDUVIGIS,EDUVIGIS,MUJER,986606504,-23.395991,-57.448153,OBRERO ESQ. FRANCISCA BERNAL,Productos y Servicios,Universidad Nacional de Concepción,www.unc.edu.py,"SI, Acepto","ODS 1: Fin de la pobreza, ODS 8: Trabajo decente y crecimiento económico"
972,HOTELES,MICRO,SAN BLAS,SAN BLAS,MUJER,240523,-23.40721,-57.44195,PDTE FRANCO E/ 14 DE MAYO,Productos y Servicios,Universidad Nacional de Concepción,www.unc.edu.py,"SI, Acepto","ODS 1: Fin de la pobreza, ODS 8: Trabajo decente y crecimiento económico"
973,FINANCIERAS,MICRO,LOMITERIA SARHA,LOMITERIA SARHA,MUJER,975257914,-23.405463,-57.438616,AVENIDA PINEDO CASI PADRE MARCELINO MEDINA,Productos y Servicios,Universidad Nacional de Concepción,www.unc.edu.py,"SI, Acepto","ODS 1: Fin de la pobreza, ODS 8: Trabajo decente y crecimiento económico"
974,ABOGADOS,,COMERCIAL ENZO,COMERCIAL ENZO,,0,-23.40844,-57.43987,0,Productos y Servicios,Universidad Nacional de Concepción,www.unc.edu.py,"SI, Acepto","ODS 1: Fin de la pobreza, ODS 8: Trabajo decente y crecimiento económico"
975,ALMACENES RAMOS GENERALES,MICRO,TALLER DE MOTO ALFREDO BENITEZ,TALLER DE MOTO ALFREDO BENITEZ,HOMBRE,971566975,-23.396522,-57.449248,1RO DE MARZO Y OBRERO,Productos y Servicios,Universidad Nacional de Concepción,www.unc.edu.py,"SI, Acepto","ODS 1: Fin de la pobreza, ODS 8: Trabajo decente y crecimiento económico"
976,ELECTRONICA - Instalaciones,,MARAVILLA COMERCIAL,MARAVILLA COMERCIAL,,0,-23.4084,-57.43957,0,Productos y Servicios,Universidad Nacional de Concepción,www.unc.edu.py,"SI, Acepto","ODS 1: Fin de la pobreza, ODS 8: Trabajo decente y crecimiento económico"
977,SUPERMERCADOS,,COMEDOR DANI,COMEDOR DANI,,0,-23.40835,-57.4399,0,Productos y Servicios,Universidad Nacional de Concepción,www.unc.edu.py,"SI, Acepto","ODS 1: Fin de la pobreza, ODS 8: Trabajo decente y crecimiento económico"
978,FRUTERIAS,,EDU NOVEDADES,EDU NOVEDADES,,0,-23.40845,-57.43952,0,Productos y Servicios,Universidad Nacional de Concepción,www.unc.edu.py,"SI, Acepto","ODS 1: Fin de la pobreza, ODS 8: Trabajo decente y crecimiento económico"
979,AUTOMOTORES - Cambio de Aceite y Filtros - Ver: Lubricantes y Filtros,MICRO,YPANE F.M,YPANE F.M,ORGANIZACION,242711,-23.4075,-57.44578,BRASIL C/ GRAL. GARAY,Productos y Servicios,Universidad Nacional de Concepción,www.unc.edu.py,"SI, Acepto","ODS 1: Fin de la pobreza, ODS 8: Trabajo decente y crecimiento económico"
980,PANADERIAS,PEQUEÑA,CASA GALI,CASA GALI,HOMBRE,331242743,-23.40803,-57.44051,SCREIBERT E/ MAYOR LORENZO MEDINA Y DON BOSCO,Productos y Servicios,Universidad Nacional de Concepción,www.unc.edu.py,"SI, Acepto","ODS 1: Fin de la pobreza, ODS 8: Trabajo decente y crecimiento económico"
981,BODEGAS,MICRO,COMERCIAL ALVAREZ,COMERCIAL ALVAREZ,MUJER,242235,-23.40465,-57.44013,DON BOSCO Y SCREIBERT,Productos y Servicios,Universidad Nacional de Concepción,www.unc.edu.py,"SI, Acepto","ODS 1: Fin de la pobreza, ODS 8: Trabajo decente y crecimiento económico"
982,ZAPATERIAS - Ver: Calzados,MICRO,UVALDO MARTINEZ,UVALDO MARTINEZ,HOMBRE,971810482,-23.395794,-57.450278,OBRERO Y ISMAEL GONZÁLEZ,Productos y Servicios,Universidad Nacional de Concepción,www.unc.edu.py,"SI, Acepto","ODS 1: Fin de la pobreza, ODS 8: Trabajo decente y crecimiento económico"
983,GOMERIAS,MICRO,JOYERÍA RD,JOYERÍA RD,HOMBRE,971823566,-23.40801,-57.44104,AV AGUSTÍN FERNANDEZ DE PINEDO,Productos y Servicios,Universidad Nacional de Concepción,www.unc.edu.py,"SI, Acepto","ODS 1: Fin de la pobreza, ODS 8: Trabajo decente y crecimiento económico"
984,LIBRERIAS,MICRO,ANA COLECTION,ANA COLECTION,MUJER,983345835,-23.409529,-57.441952,AVDA. PINEDO Y MCAL. LÓPEZ,Productos y Servicios,Universidad Nacional de Concepción,www.unc.edu.py,"SI, Acepto","ODS 1: Fin de la pobreza, ODS 8: Trabajo decente y crecimiento económico"
985,FERRETERIAS,MICRO,SAN JOSÉ S.A,SAN JOSÉ S.A,ORGANIZACION,331243337,-23.410238,-57.444366,CORONEL MARTINEZ Y YEGROS,Productos y Servicios,Universidad Nacional de Concepción,www.unc.edu.py,"SI, Acepto","ODS 1: Fin de la pobreza, ODS 8: Trabajo decente y crecimiento económico"
986,DESPENSAS,MICRO,CRD DESPENSA,CRD DESPENSA,MUJER,976813087,-23.39305,-57.44276,TE JOSE GOMEZ Y 14 DE MAYO,Productos y Servicios,Universidad Nacional de Concepción,www.unc.edu.py,"SI, Acepto","ODS 1: Fin de la pobreza, ODS 8: Trabajo decente y crecimiento económico"
987,AUTOMOTORES - Talleres Mecanicos,MICRO,YSAPY,YSAPY,HOMBRE,0,-23.408623,-57.442752,MCAL. ESTIGARRIBIA Y YEGROS,Productos y Servicios,Universidad Nacional de Concepción,www.unc.edu.py,"SI, Acepto","ODS 1: Fin de la pobreza, ODS 8: Trabajo decente y crecimiento económico"
988,BARES Y COPETINES,MICRO,MI RINCÓN,MI RINCÓN,HOMBRE,331240404,-23.410268,-57.44207,YEGROS Y CNEL. MARTINEZ,Productos y Servicios,Universidad Nacional de Concepción,www.unc.edu.py,"SI, Acepto","ODS 1: Fin de la pobreza, ODS 8: Trabajo decente y crecimiento económico"
989,JUEGOS DE AZAR,MICRO,SALÓN DE BELLEZA CLAUDIA,SALÓN DE BELLEZA CLAUDIA,MUJER,0,-23.410169,-57.441523,CNEL. MARTINEZ C/ AVDA. PINEDO,Productos y Servicios,Universidad Nacional de Concepción,www.unc.edu.py,"SI, Acepto","ODS 1: Fin de la pobreza, ODS 8: Trabajo decente y crecimiento económico"
990,DESPENSAS,MICRO,TALLER ELECTROMECANICO,TALLER ELECTROMECANICO,HOMBRE,331241644,-23.410228,-57.441909,CNEL. MARTINEZ C/ AVDA. PINEDO,Productos y Servicios,Universidad Nacional de Concepción,www.unc.edu.py,"SI, Acepto","ODS 1: Fin de la pobreza, ODS 8: Trabajo decente y crecimiento económico"
991,BODEGAS,MICRO,VÍCTOR HUGO,VÍCTOR HUGO,MUJER,971414109,-23.39331,-57.4439,PROFESOR MIANICOFF,Productos y Servicios,Universidad Nacional de Concepción,www.unc.edu.py,"SI, Acepto","ODS 1: Fin de la pobreza, ODS 8: Trabajo decente y crecimiento económico"
992,PIZZAS - Fabricas,,DESPENSA RUBI,DESPENSA RUBI,,,-23.396936,-57.449012,CAPITAN MANUEL IRALA ESQ. 1RO DE MARZO,Productos y Servicios,Universidad Nacional de Concepción,www.unc.edu.py,"SI, Acepto","ODS 1: Fin de la pobreza, ODS 8: Trabajo decente y crecimiento económico"
993,HAMBURGUESAS - Servicios de,,FOTO AVALOS,FOTO AVALOS,,973696573,-23.396936,-57.448089,CPTAN MANUEL IRALA FERNANDEZ ESQ. FRANCISCA BERNAL,Productos y Servicios,Universidad Nacional de Concepción,www.unc.edu.py,"SI, Acepto","ODS 1: Fin de la pobreza, ODS 8: Trabajo decente y crecimiento económico"
994,MOTOCICLETAS - Representantes,MICRO,ROSANA,ROSANA,MUJER,982960768,-23.39227,-57.4462,JORGE SEBASTIÁN MIRANDA,Productos y Servicios,Universidad Nacional de Concepción,www.unc.edu.py,"SI, Acepto","ODS 1: Fin de la pobreza, ODS 8: Trabajo decente y crecimiento económico"
995,CAFE - Distribuidores,MICRO,DISTRICAR YVERA,DISTRICAR YVERA,HOMBRE,986562109,-23.409726,-57.439957,BERNARDINO CABALLERO,Productos y Servicios,Universidad Nacional de Concepción,www.unc.edu.py,"SI, Acepto","ODS 1: Fin de la pobreza, ODS 8: Trabajo decente y crecimiento económico"
996,DULCES - Distribuidores,MICRO,PESCADERÍA VELÁZQUEZ,PESCADERÍA VELÁZQUEZ,HOMBRE,0,-23.41997,-57.44265,MONSEÑOR LASCHI IRIGOYEN,Productos y Servicios,Universidad Nacional de Concepción,www.unc.edu.py,"SI, Acepto","ODS 1: Fin de la pobreza, ODS 8: Trabajo decente y crecimiento económico"
997,PRODUCTOS LACTEOS - Distribuidores,MICRO,PESCADERÍA EL PESCADOR 1,PESCADERÍA EL PESCADOR 1,HOMBRE,971892337,-23.41997,-57.44265,MONSEÑOR BENIGNO LASCHI C/ IRIGOYA,Productos y Servicios,Universidad Nacional de Concepción,www.unc.edu.py,"SI, Acepto","ODS 1: Fin de la pobreza, ODS 8: Trabajo decente y crecimiento económico"
998,POLLOS FAENADOS - Distribuidores,MICRO,DEPOSITO DE HARINA SEM AGRO,DEPOSITO DE HARINA SEM AGRO,HOMBRE,972101396,-23.395892,-57.447102,OBRERO C/ PROF MERALDA DE ORTELLADO,Productos y Servicios,Universidad Nacional de Concepción,www.unc.edu.py,"SI, Acepto","ODS 1: Fin de la pobreza, ODS 8: Trabajo decente y crecimiento económico"
999,PRENDAS - Ver. Ropas,MICRO,DESPENSA Y CARNICERÍA DON ISI,DESPENSA Y CARNICERÍA DON ISI,MUJER,240485,-23.41997,-57.44247,ELADIO CABRAL C/ MADRE CONCEPCIONERA,Productos y Servicios,Universidad Nacional de Concepción,www.unc.edu.py,"SI, Acepto","ODS 1: Fin de la pobreza, ODS 8: Trabajo decente y crecimiento económico"
1000,MERCERIAS,PEQUEÑA,PERLA NORTE,PERLA NORTE,HOMBRE,241338,-23.409618,-57.440804,AVDA. BERNARDINO CABALLERO C/ AVDA PINEDO,Productos y Servicios,Universidad Nacional de Concepción,www.unc.edu.py,"SI, Acepto","ODS 1: Fin de la pobreza, ODS 8: Trabajo decente y crecimiento económico"
1002,DESPENSAS,MICRO,RPM,RPM,HOMBRE,985885416,-23.395794,-57.446094,JORGE S. MIRANDA ESQ. OBRERO,Productos y Servicios,Universidad Nacional de Concepción,www.unc.edu.py,"SI, Acepto","ODS 1: Fin de la pobreza, ODS 8: Trabajo decente y crecimiento económico"
1003,AGROPECUARIAS,MICRO,DIVISERVICE,DIVISERVICE,HOMBRE,971229312,-23.408481,-57.443057,MCAL. ESTIGARRIBIA C/ 14 DE MAYO,Productos y Servicios,Universidad Nacional de Concepción,www.unc.edu.py,"SI, Acepto","ODS 1: Fin de la pobreza, ODS 8: Trabajo decente y crecimiento económico"
1004,ELECTRODOMESTICOS - Distribuidoras,MICRO,CPETIN CAACUPE,CPETIN CAACUPE,MUJER,972524589,-23.409504,-57.441373,MCAL. LOPEZ C/ AVDA. PINEDO,Productos y Servicios,Universidad Nacional de Concepción,www.unc.edu.py,"SI, Acepto","ODS 1: Fin de la pobreza, ODS 8: Trabajo decente y crecimiento económico"
1005,TELEFONIA - Cabinas Publicas,MICRO,LA ELEGANCIA,LA ELEGANCIA,HOMBRE,972123729,-23.409421,-57.443959,MCAL. LÓPEZ Y 14 DE MAYO,Productos y Servicios,Universidad Nacional de Concepción,www.unc.edu.py,"SI, Acepto","ODS 1: Fin de la pobreza, ODS 8: Trabajo decente y crecimiento económico"
1006,AUTOMOTORES - Talleres Mecanicos,MICRO,AL PASO,AL PASO,HOMBRE,331240925,-23.409578,-57.441931,YEGROS Y MCAL. LÓPEZ,Productos y Servicios,Universidad Nacional de Concepción,www.unc.edu.py,"SI, Acepto","ODS 1: Fin de la pobreza, ODS 8: Trabajo decente y crecimiento económico"
1007,PERFUMERIAS,MICRO,DON PITA PAN,DON PITA PAN,HOMBRE,982487771,-23.408889,-57.442038,PLAZA AGUSTIN F. DE PINEDO,Productos y Servicios,Universidad Nacional de Concepción,www.unc.edu.py,"SI, Acepto","ODS 1: Fin de la pobreza, ODS 8: Trabajo decente y crecimiento económico"
1008,INTERNET - Cyber,MICRO,TÍA OLI,TÍA OLI,MUJER,976915739,-23.409027,-57.442017,PLAZA AGUSTÍN F. DE PINEDO,Productos y Servicios,Universidad Nacional de Concepción,www.unc.edu.py,"SI, Acepto","ODS 1: Fin de la pobreza, ODS 8: Trabajo decente y crecimiento económico"
1009,FOTOGRAFIAS,MICRO,WINNER SPORT,WINNER SPORT,MUJER,972691748,-23.409657,-57.443218,MCAL. LÓPEZ Y YEGROS,Productos y Servicios,Universidad Nacional de Concepción,www.unc.edu.py,"SI, Acepto","ODS 1: Fin de la pobreza, ODS 8: Trabajo decente y crecimiento económico"
1010,DESPENSAS,MICRO,HOC CELL,HOC CELL,HOMBRE,331241509,-23.402765,-57.441137,AVDA. PINEDO Y MÉDICOS DEL CHACO,Productos y Servicios,Universidad Nacional de Concepción,www.unc.edu.py,"SI, Acepto","ODS 1: Fin de la pobreza, ODS 8: Trabajo decente y crecimiento económico"
1011,DESPENSAS,MICRO,ESTILO HOGAR CONCEPCIÓN,ESTILO HOGAR CONCEPCIÓN,HOMBRE,331241930,-23.403238,-57.441244,AVDA. PINEDO C/ 13 TUYUTI,Productos y Servicios,Universidad Nacional de Concepción,www.unc.edu.py,"SI, Acepto","ODS 1: Fin de la pobreza, ODS 8: Trabajo decente y crecimiento económico"
1012,CELULAR - Aparatos,MICRO,VR PUBLICITARIA,VR PUBLICITARIA,MUJER,331240809,-23.40543,-57.44385,AVDA. PINEDO C/ SOLDADO DESCONOCIDO,Productos y Servicios,Universidad Nacional de Concepción,www.unc.edu.py,"SI, Acepto","ODS 1: Fin de la pobreza, ODS 8: Trabajo decente y crecimiento económico"
1013,DESPENSAS,MICRO,MARIAM,MARIAM,HOMBRE,971727588,-23.398,-57.44028,MADRINAS DE GUERRA C/PINEDO,Productos y Servicios,Universidad Nacional de Concepción,www.unc.edu.py,"SI, Acepto","ODS 1: Fin de la pobreza, ODS 8: Trabajo decente y crecimiento económico"
1014,FOTOGRAFIAS,MICRO,RENE,RENE,HOMBRE,991498137,-23.39791,-57.44102,AVDA. PINEDO C/ MADRINA DE GUERRA,Productos y Servicios,Universidad Nacional de Concepción,www.unc.edu.py,"SI, Acepto","ODS 1: Fin de la pobreza, ODS 8: Trabajo decente y crecimiento económico"
1015,SALONES PARA EVENTOS,MICRO,MBURIKAO,MBURIKAO,HOMBRE,971807670,-23.404143,-57.431073,TTE. ROJAS SILVA,Productos y Servicios,Universidad Nacional de Concepción,www.unc.edu.py,"SI, Acepto","ODS 1: Fin de la pobreza, ODS 8: Trabajo decente y crecimiento económico"
1016,DESPENSAS,MICRO,MINI PLUS,MINI PLUS,MUJER,971814833,-23.403119,-57.431417,TTE. ROJAS SILVA C/ PAI PÉREZ,Productos y Servicios,Universidad Nacional de Concepción,www.unc.edu.py,"SI, Acepto","ODS 1: Fin de la pobreza, ODS 8: Trabajo decente y crecimiento económico"
1017,BEBIDAS - Depositos de,MICRO,GALEANO,GALEANO,HOMBRE,971278223,-23.400874,-57.43957,PAI PÉREZ C/ 13 TUYUTI,Productos y Servicios,Universidad Nacional de Concepción,www.unc.edu.py,"SI, Acepto","ODS 1: Fin de la pobreza, ODS 8: Trabajo decente y crecimiento económico"
1018,DESPENSAS,MICRO,VETERINARIA 4 PATAS,VETERINARIA 4 PATAS,MUJER,971469724,-23.40218,-57.4398,AVDA. BOQUERÓN C/ PAÍ PÉREZ,Productos y Servicios,Universidad Nacional de Concepción,www.unc.edu.py,"SI, Acepto","ODS 1: Fin de la pobreza, ODS 8: Trabajo decente y crecimiento económico"
1019,ODONTOLOGIA - Clinicas,MICRO,P.P COMERCIAL,P.P COMERCIAL,HOMBRE,331240632,-23.39765,-57.43934,PAÍ PÉREZ 548,Productos y Servicios,Universidad Nacional de Concepción,www.unc.edu.py,"SI, Acepto","ODS 1: Fin de la pobreza, ODS 8: Trabajo decente y crecimiento económico"
1020,SALES MINERALES,MICRO,LA AGUADA,LA AGUADA,MUJER,975385834,-23.39745,-57.93925,PAÍ PÉREZ 564 C/ MEDICOS DEL CHACO,Productos y Servicios,Universidad Nacional de Concepción,www.unc.edu.py,"SI, Acepto","ODS 1: Fin de la pobreza, ODS 8: Trabajo decente y crecimiento económico"
1021,BOUTIQUES,MICRO,BENITEZ,BENITEZ,HOMBRE,981348822,-23.39779,-57.43841,TADEO AVALOS C/ RUTA LORETO,Productos y Servicios,Universidad Nacional de Concepción,www.unc.edu.py,"SI, Acepto","ODS 1: Fin de la pobreza, ODS 8: Trabajo decente y crecimiento económico"
1022,COMEDORES,MICRO,DESPENSA BELLE,DESPENSA BELLE,MUJER,984170606,-23.39832,-57.43855,TTE. TADEO AVALOS C/ MADRINA DE GUERRA,Productos y Servicios,Universidad Nacional de Concepción,www.unc.edu.py,"SI, Acepto","ODS 1: Fin de la pobreza, ODS 8: Trabajo decente y crecimiento económico"
1023,DESPENSAS,MICRO,CLINICAO,CLINICAO,HOMBRE,971805261,-23.40223,-57.43949,AVDA. BOQUERÓN C/ PAÍ PÉREZ,Productos y Servicios,Universidad Nacional de Concepción,www.unc.edu.py,"SI, Acepto","ODS 1: Fin de la pobreza, ODS 8: Trabajo decente y crecimiento económico"
1024,AUTOMOTORES - Talleres Mecanicos,MICRO,EUGENIA,EUGENIA,MUJER,331242324,-23.90211,-57.439,TTE. TADEO AVALOS C/ 13 TUYUTI,Productos y Servicios,Universidad Nacional de Concepción,www.unc.edu.py,"SI, Acepto","ODS 1: Fin de la pobreza, ODS 8: Trabajo decente y crecimiento económico"
1025,GOMERIAS,MICRO,M.R,M.R,HOMBRE,0,-23.396483,-57.439055,MEDICOS DEL CHACO Y PAÍ PÉREZ,Productos y Servicios,Universidad Nacional de Concepción,www.unc.edu.py,"SI, Acepto","ODS 1: Fin de la pobreza, ODS 8: Trabajo decente y crecimiento económico"
1026,CARNICERIAS,MICRO,SAN JOSÉ,SAN JOSÉ,HOMBRE,975287188,-23.403198,-57.441158,AVDA. PINEDO C/ MADRINA DE GUERRA,Productos y Servicios,Universidad Nacional de Concepción,www.unc.edu.py,"SI, Acepto","ODS 1: Fin de la pobreza, ODS 8: Trabajo decente y crecimiento económico"
1027,ESTACIONES DE SERVICIOS,MICRO,LA MISIONERA,LA MISIONERA,MUJER,331242520,-23.405798,-57.44103,AVDA. PINEDO C/ 13 TUYUTI,Productos y Servicios,Universidad Nacional de Concepción,www.unc.edu.py,"SI, Acepto","ODS 1: Fin de la pobreza, ODS 8: Trabajo decente y crecimiento económico"
1028,DESPENSAS,MICRO,TODO POR 20.000,TODO POR 20.000,HOMBRE,973119190,-23.398905,-57.447338,AVDA. PINEDO Y 13 TUYUTI,Productos y Servicios,Universidad Nacional de Concepción,www.unc.edu.py,"SI, Acepto","ODS 1: Fin de la pobreza, ODS 8: Trabajo decente y crecimiento económico"
1029,BOUTIQUES,MICRO,MITO,MITO,HOMBRE,0,-23.406152,-57.441072,13 TUYUTI C/ AVDA. PINEDO,Productos y Servicios,Universidad Nacional de Concepción,www.unc.edu.py,"SI, Acepto","ODS 1: Fin de la pobreza, ODS 8: Trabajo decente y crecimiento económico"
1030,BEBIDAS - Depositos de,MICRO,OSCAR,OSCAR,HOMBRE,331240618,-23.401859,-57.438583,PAÍ PÉREZ C/ SOLDADO DESCONOCIDO,Productos y Servicios,Universidad Nacional de Concepción,www.unc.edu.py,"SI, Acepto","ODS 1: Fin de la pobreza, ODS 8: Trabajo decente y crecimiento económico"
1031,COMEDORES,MICRO,RAMONITA,RAMONITA,MUJER,971898598,-23.408437,-57.43912,13 TUYUTI E/ PAÍ PÉREZ,Productos y Servicios,Universidad Nacional de Concepción,www.unc.edu.py,"SI, Acepto","ODS 1: Fin de la pobreza, ODS 8: Trabajo decente y crecimiento económico"
1032,DESPENSAS,MICRO,LO DE ROMI,LO DE ROMI,MUJER,0,-23.40694,-57.441115,13 TUYUTI C/ AVDA. PINEDO,Productos y Servicios,Universidad Nacional de Concepción,www.unc.edu.py,"SI, Acepto","ODS 1: Fin de la pobreza, ODS 8: Trabajo decente y crecimiento económico"
1033,DESPENSAS,MICRO,COPIAS ZONA ZERO,COPIAS ZONA ZERO,HOMBRE,331241087,-23.401623,-57.438369,AVDA. PINEDO Y SOLDADO DESCONOCIDO,Productos y Servicios,Universidad Nacional de Concepción,www.unc.edu.py,"SI, Acepto","ODS 1: Fin de la pobreza, ODS 8: Trabajo decente y crecimiento económico"
1034,VERDULERIAS,MICRO,RELOJERIA SUIZA,RELOJERIA SUIZA,MUJER,331240438,-23.407826,-57.444549,PTE. FRANCO C/ GRAL. GARAY,Productos y Servicios,Universidad Nacional de Concepción,www.unc.edu.py,"SI, Acepto","ODS 1: Fin de la pobreza, ODS 8: Trabajo decente y crecimiento económico"
1035,DESPENSAS,MICRO,KATHERIN BOUTIQUE,KATHERIN BOUTIQUE,MUJER,242841,-23.409539,-57.444592,PTE. FRANCO C/ GRAL. GARAY,Productos y Servicios,Universidad Nacional de Concepción,www.unc.edu.py,"SI, Acepto","ODS 1: Fin de la pobreza, ODS 8: Trabajo decente y crecimiento económico"
1036,LAVADEROS DE AUTOVEHICULOS,MICRO,AUTOSERVICE VIRGEN DEL CARMEN,AUTOSERVICE VIRGEN DEL CARMEN,MUJER,242878,-23.407196,-57.444678,GRAL.GARAY C/ BRASIL,Productos y Servicios,Universidad Nacional de Concepción,www.unc.edu.py,"SI, Acepto","ODS 1: Fin de la pobreza, ODS 8: Trabajo decente y crecimiento económico"
1037,ESTUDIOS CONTABLES,MICRO,EL HELADERO,EL HELADERO,HOMBRE,976865750,-23.406783,-57.444785,GRAL. GARAY ESQ/ BRASIL,Productos y Servicios,Universidad Nacional de Concepción,www.unc.edu.py,"SI, Acepto","ODS 1: Fin de la pobreza, ODS 8: Trabajo decente y crecimiento económico"
1038,AUTOMOTORES - Talleres Mecanicos,MICRO,ML MULTIMARCAS,ML MULTIMARCAS,MUJER,984138020,-23.406724,-57.443412,BRASIL C/ 14 DE MAYO,Productos y Servicios,Universidad Nacional de Concepción,www.unc.edu.py,"SI, Acepto","ODS 1: Fin de la pobreza, ODS 8: Trabajo decente y crecimiento económico"
1039,CARNICERIAS,MICRO,TERESA DE JESUS,TERESA DE JESUS,MUJER,331242117,-23.406743,-57.443004,BRASIL C/ 14 DE MAYO,Productos y Servicios,Universidad Nacional de Concepción,www.unc.edu.py,"SI, Acepto","ODS 1: Fin de la pobreza, ODS 8: Trabajo decente y crecimiento económico"
1040,JUGOS NATURALES,MICRO,PELUQUERIA ROSI,PELUQUERIA ROSI,MUJER,981749633,-23.407334,-57.443562,14 DE MAYO C/ BRASIL,Productos y Servicios,Universidad Nacional de Concepción,www.unc.edu.py,"SI, Acepto","ODS 1: Fin de la pobreza, ODS 8: Trabajo decente y crecimiento económico"
1041,AUTOMOTORES - Talleres Mecanicos,MICRO,TERESA DECORACIONES,TERESA DECORACIONES,MUJER,242006,-23.407018,-57.444205,BRASIL C/ 14 DE MAYO,Productos y Servicios,Universidad Nacional de Concepción,www.unc.edu.py,"SI, Acepto","ODS 1: Fin de la pobreza, ODS 8: Trabajo decente y crecimiento económico"
1042,GASTRONOMIA - Materia Prima,MICRO,TALLER SAN CARLOS,TALLER SAN CARLOS,HOMBRE,331241992,-23.40757,-57.443905,BRASIL C/ PTE. FRANCO,Productos y Servicios,Universidad Nacional de Concepción,www.unc.edu.py,"SI, Acepto","ODS 1: Fin de la pobreza, ODS 8: Trabajo decente y crecimiento económico"
1043,FOTOGRAFIAS,MICRO,RAQUEL NOVEDADES,RAQUEL NOVEDADES,HOMBRE,972656068,-23.408476,-57.441995,MCAL. ESTIGARRIBIS C/ AVDA. PINEDO,Productos y Servicios,Universidad Nacional de Concepción,www.unc.edu.py,"SI, Acepto","ODS 1: Fin de la pobreza, ODS 8: Trabajo decente y crecimiento económico"
1044,VESTIDOS DE NOVIA - Alquileres,MICRO,DESPENSA ANA KAURA,DESPENSA ANA KAURA,MUJER,972874526,-23.419404,-57.438133,BERNARDO ROJAS,Productos y Servicios,Universidad Nacional de Concepción,www.unc.edu.py,"SI, Acepto","ODS 1: Fin de la pobreza, ODS 8: Trabajo decente y crecimiento económico"
1045,GASTRONOMIA - Servicios,MICRO,DESPENSA ELIAS,DESPENSA ELIAS,MUJER,0,-23.419562,-57.439485,MADRE CONCEPCIONERA C/ DOMINGO ROBLEDO,Productos y Servicios,Universidad Nacional de Concepción,www.unc.edu.py,"SI, Acepto","ODS 1: Fin de la pobreza, ODS 8: Trabajo decente y crecimiento económico"
1046,ARTICULOS DE BAZAR,MICRO,DESPENSA DOS HERMANOS,DESPENSA DOS HERMANOS,MUJER,972138334,-23.420487,-57.440686,MADRES CONCEPCIONERAS C/AVDA PINEDO,Productos y Servicios,Universidad Nacional de Concepción,www.unc.edu.py,"SI, Acepto","ODS 1: Fin de la pobreza, ODS 8: Trabajo decente y crecimiento económico"
1047,BOUTIQUES,MICRO,DESPENSA RODRIGUEZ,DESPENSA RODRIGUEZ,HOMBRE,971188169,-23.420448,-57.440493,,Productos y Servicios,Universidad Nacional de Concepción,www.unc.edu.py,"SI, Acepto","ODS 1: Fin de la pobreza, ODS 8: Trabajo decente y crecimiento económico"
1048,SALONES DE BELLEZA,MICRO,LIBRERIA SF,LIBRERIA SF,ORGANIZACION,0,-23.419817,-57.4403,JUAN JOSE GAMARRA Y TTE LUIS PARRA,Productos y Servicios,Universidad Nacional de Concepción,www.unc.edu.py,"SI, Acepto","ODS 1: Fin de la pobreza, ODS 8: Trabajo decente y crecimiento económico"
1049,PELUQUERIAS,MICRO,MC ELECTRODOMESTICOS,MC ELECTRODOMESTICOS,MUJER,331240371,-23.420428,-57.440085,ANTONIO CABALLERO Y TTE CABRERA,Productos y Servicios,Universidad Nacional de Concepción,www.unc.edu.py,"SI, Acepto","ODS 1: Fin de la pobreza, ODS 8: Trabajo decente y crecimiento económico"
1050,CONSULTORAS JURIDICAS,MICRO,MARIA INES,MARIA INES,MUJER,242901,-23.40884,-57.451329,CARLOS ANTONIO LOPEZ ESQ. MARISCAL ESTIGARRIBIA,Productos y Servicios,Universidad Nacional de Concepción,www.unc.edu.py,"SI, Acepto","ODS 1: Fin de la pobreza, ODS 8: Trabajo decente y crecimiento económico"
1051,ABOGADOS,MICRO,VICTORINA COLMAN,VICTORINA COLMAN,MUJER,240087,-23.420487,-57.44015,ANTONIA CABRERA Y TTE CABRERA,Productos y Servicios,Universidad Nacional de Concepción,www.unc.edu.py,"SI, Acepto","ODS 1: Fin de la pobreza, ODS 8: Trabajo decente y crecimiento económico"
1052,BODEGAS,MICRO,SPORT MANIA,SPORT MANIA,MUJER,971807790,-23.409204,-57.440901,AVDA PINEDO,Productos y Servicios,Universidad Nacional de Concepción,www.unc.edu.py,"SI, Acepto","ODS 1: Fin de la pobreza, ODS 8: Trabajo decente y crecimiento económico"
1053,ARTICULOS DE LIMPIEZA,MICRO,TALLER DE MOTO NENE,TALLER DE MOTO NENE,HOMBRE,971834270,-23.408437,-57.43912,GUILLERMO CABRAL C/BERNARDINO CABALLERO,Productos y Servicios,Universidad Nacional de Concepción,www.unc.edu.py,"SI, Acepto","ODS 1: Fin de la pobreza, ODS 8: Trabajo decente y crecimiento económico"
1054,PRENDAS - Ver. Ropas,MICRO,VERDULERIA AMAMBAY,VERDULERIA AMAMBAY,HOMBRE,0,-23.410426,-57.439978,PROFESOR GUILLERMO CABRAL,Productos y Servicios,Universidad Nacional de Concepción,www.unc.edu.py,"SI, Acepto","ODS 1: Fin de la pobreza, ODS 8: Trabajo decente y crecimiento económico"
1055,FINANCIERAS,MICRO,CARNICERIA SANTA ANA,CARNICERIA SANTA ANA,HOMBRE,331241666,-23.409066,-57.44,PROFESOR CABRAL,Productos y Servicios,Universidad Nacional de Concepción,www.unc.edu.py,"SI, Acepto","ODS 1: Fin de la pobreza, ODS 8: Trabajo decente y crecimiento económico"
1056,CASAS DE CAMBIOS,MICRO,SHARAT CELL,SHARAT CELL,HOMBRE,0,-23.408673,-57.437704,AVDA BERNARDINO CABALLERO C/PROF CABRAL,Productos y Servicios,Universidad Nacional de Concepción,www.unc.edu.py,"SI, Acepto","ODS 1: Fin de la pobreza, ODS 8: Trabajo decente y crecimiento económico"
1057,DESPENSAS,MICRO,DIGITAL 3,DIGITAL 3,HOMBRE,972936770,-23.408515,-57.439785,BERNARDINO CABALLERO C/ PROFESOR CABRAL,Productos y Servicios,Universidad Nacional de Concepción,www.unc.edu.py,"SI, Acepto","ODS 1: Fin de la pobreza, ODS 8: Trabajo decente y crecimiento económico"
1058,ARTICULOS DE LIMPIEZA,MICRO,COMEDOR DE YANDIRA,COMEDOR DE YANDIRA,MUJER,982665915,-23.409461,-57.439034,BERNARDINO CABALLERO C/PROFESOR CABRAL,Productos y Servicios,Universidad Nacional de Concepción,www.unc.edu.py,"SI, Acepto","ODS 1: Fin de la pobreza, ODS 8: Trabajo decente y crecimiento económico"
1059,CARNICERIAS,MICRO,TODO POR 20MIL,TODO POR 20MIL,HOMBRE,983781256,-23.408476,-57.438991,BERNARDINO CABALLERO C/PROFESOR CABRAL,Productos y Servicios,Universidad Nacional de Concepción,www.unc.edu.py,"SI, Acepto","ODS 1: Fin de la pobreza, ODS 8: Trabajo decente y crecimiento económico"
1060,AUTOMOTORES - Repuestos y Accesorios,MICRO,CASA CARDOZO,CASA CARDOZO,HOMBRE,0,-23.409322,-57.432017,AV BERNARDINO CABALLERO,Productos y Servicios,Universidad Nacional de Concepción,www.unc.edu.py,"SI, Acepto","ODS 1: Fin de la pobreza, ODS 8: Trabajo decente y crecimiento económico"
1061,GASTRONOMIA - Servicios,MICRO,CRISPIN GALEANO,CRISPIN GALEANO,HOMBRE,242371,-23.40369,-57.438455,PADRE MEDINA,Productos y Servicios,Universidad Nacional de Concepción,www.unc.edu.py,"SI, Acepto","ODS 1: Fin de la pobreza, ODS 8: Trabajo decente y crecimiento económico"
1062,MOTOCICLETAS - Taller,,MI LIMÓN COMPLEMENTOS,MI LIMÓN COMPLEMENTOS,MUJER,0,-23.409786,-57.441352,AV PINEDO,Productos y Servicios,Universidad Nacional de Concepción,www.unc.edu.py,"SI, Acepto","ODS 1: Fin de la pobreza, ODS 8: Trabajo decente y crecimiento económico"
1063,MERCERIAS,MICRO,LIBRERIA ROCIO,LIBRERIA ROCIO,HOMBRE,240323,-23.409854,-57.441287,AVENIDA PINEDO ENTRE ROY BERNAL Y BERNARDINO CABALLERO,Productos y Servicios,Universidad Nacional de Concepción,www.unc.edu.py,"SI, Acepto","ODS 1: Fin de la pobreza, ODS 8: Trabajo decente y crecimiento económico"
1064,RADIOEMISORAS,MICRO,ONDA NORTE,ONDA NORTE,HOMBRE,982210329,-23.409204,-57.439892,PROFESOR CABRAL C/BERNARDINO CABALLERO,Productos y Servicios,Universidad Nacional de Concepción,www.unc.edu.py,"SI, Acepto","ODS 1: Fin de la pobreza, ODS 8: Trabajo decente y crecimiento económico"
1065,RAMOS GENERALES -Ver: Almacenes Ramos Generales,MICRO,3 DE FEBRERO,3 DE FEBRERO,MUJER,971961297,-23.409342,-57.44,PROF. CABRAL C/AVDA BERNARDINO CABALLERO,Productos y Servicios,Universidad Nacional de Concepción,www.unc.edu.py,"SI, Acepto","ODS 1: Fin de la pobreza, ODS 8: Trabajo decente y crecimiento económico"
1066,JOYERIAS,MICRO,IT PALAZZO,IT PALAZZO,HOMBRE,0,-23.407885,-57.450514,PRESIDENTE FRANCO C/ CARLOS A. LOPEZ,Productos y Servicios,Universidad Nacional de Concepción,www.unc.edu.py,"SI, Acepto","ODS 1: Fin de la pobreza, ODS 8: Trabajo decente y crecimiento económico"
1067,BOUTIQUES,MICRO,SAN RAMON,SAN RAMON,HOMBRE,971554979,-23.403415,-57.440708,MARCELINO MEDINA,Productos y Servicios,Universidad Nacional de Concepción,www.unc.edu.py,"SI, Acepto","ODS 1: Fin de la pobreza, ODS 8: Trabajo decente y crecimiento económico"
1068,IMPRENTAS,MICRO,NGC CABRAL,NGC CABRAL,HOMBRE,240895,-23.408496,-57.438905,MAYOR LORENZO MEDINA C/ PROFESOR CABRAL,Productos y Servicios,Universidad Nacional de Concepción,www.unc.edu.py,"SI, Acepto","ODS 1: Fin de la pobreza, ODS 8: Trabajo decente y crecimiento económico"
1069,BARES Y COPETINES,MICRO,GONZALITO,GONZALITO,HOMBRE,240427,-23.402903,-57.437553,AVDA BOQUERON Y SCREIBERT,Productos y Servicios,Universidad Nacional de Concepción,www.unc.edu.py,"SI, Acepto","ODS 1: Fin de la pobreza, ODS 8: Trabajo decente y crecimiento económico"
1070,HELADERIAS,MICRO,TORRIN MANIA,TORRIN MANIA,MUJER,971836163,-23.413477,-57.440686,CORONEL PANCHITO LOPEZ,Productos y Servicios,Universidad Nacional de Concepción,www.unc.edu.py,"SI, Acepto","ODS 1: Fin de la pobreza, ODS 8: Trabajo decente y crecimiento económico"
1071,HOTELES,MICRO,AUTOSERVICE ADORKAT,AUTOSERVICE ADORKAT,HOMBRE,241011,-23.407668,-57.440429,MAYOR LORENZO MEDINA C/PROFESOR CABRAL,Productos y Servicios,Universidad Nacional de Concepción,www.unc.edu.py,"SI, Acepto","ODS 1: Fin de la pobreza, ODS 8: Trabajo decente y crecimiento económico"
1072,BARES Y COPETINES,MICRO,MBURUKUJA CENTRO DE COMPRAS,MBURUKUJA CENTRO DE COMPRAS,MUJER,331240997,-23.409677,-57.440622,BERNARDINO CABALLERO CASI AVDA,Productos y Servicios,Universidad Nacional de Concepción,www.unc.edu.py,"SI, Acepto","ODS 1: Fin de la pobreza, ODS 8: Trabajo decente y crecimiento económico"
1073,AUTOMOTORES - Compra-Ventas,MICRO,8 DE DICIEMBRE,8 DE DICIEMBRE,MUJER,972501769,-23.408516,-57.439442,MAYOR LORENZO MEDINA C/INT. SCREIBERT,Productos y Servicios,Universidad Nacional de Concepción,www.unc.edu.py,"SI, Acepto","ODS 1: Fin de la pobreza, ODS 8: Trabajo decente y crecimiento económico"
1074,ELECTROMECANICAS - Talleres,MICRO,LAURI BAZAR,LAURI BAZAR,HOMBRE,242983,-23.408515,-57.439528,MAYOR LORENZO MEDINA C/INT SCREIBERT,Productos y Servicios,Universidad Nacional de Concepción,www.unc.edu.py,"SI, Acepto","ODS 1: Fin de la pobreza, ODS 8: Trabajo decente y crecimiento económico"
1075,BOUTIQUES,MICRO,ÁREA TOP MULTIMARCAS,ÁREA TOP MULTIMARCAS,HOMBRE,971821802,-23.408732,-57.440407,MAYOR LORENZO MEDINA C/ SCREIBERT,Productos y Servicios,Universidad Nacional de Concepción,www.unc.edu.py,"SI, Acepto","ODS 1: Fin de la pobreza, ODS 8: Trabajo decente y crecimiento económico"
1076,DESPENSAS,MICRO,PAISANO,PAISANO,MUJER,241952,-23.408476,-57.439013,MAYOR LORENZO MEDINA C/ INT. SCREIBERT,Productos y Servicios,Universidad Nacional de Concepción,www.unc.edu.py,"SI, Acepto","ODS 1: Fin de la pobreza, ODS 8: Trabajo decente y crecimiento económico"
1077,RECEPCIONES - Servicios para,MICRO,CHACOMER SAECA,CHACOMER SAECA,ORGANIZACION,331242173,-23.408437,-57.44236,MAYOR LORENZO MEDINA C/ SCREIBERT,Productos y Servicios,Universidad Nacional de Concepción,www.unc.edu.py,"SI, Acepto","ODS 1: Fin de la pobreza, ODS 8: Trabajo decente y crecimiento económico"
1078,SERVICIOS DE COMIDA,MICRO,TODO POR 20.000,TODO POR 20.000,MUJER,982720486,-23.409352,-57.439957,BERNARDINO CABALLERO C/SCREIBERT,Productos y Servicios,Universidad Nacional de Concepción,www.unc.edu.py,"SI, Acepto","ODS 1: Fin de la pobreza, ODS 8: Trabajo decente y crecimiento económico"
1079,CARNICERIAS,MICRO,LORENZO COMERCIAL,LORENZO COMERCIAL,MUJER,976822522,-23.408437,-57.43912,INT. SCREIBERT C/AVDA BERNARDINO CABALLERO,Productos y Servicios,Universidad Nacional de Concepción,www.unc.edu.py,"SI, Acepto","ODS 1: Fin de la pobreza, ODS 8: Trabajo decente y crecimiento económico"
1080,PESCADERIAS,MICRO,COMEDOR ÑA SELVA,COMEDOR ÑA SELVA,HOMBRE,240579,-23.409263,-57.438927,CNEL PANCHITO LOPEZ C/PROFESOR CABRAL,Productos y Servicios,Universidad Nacional de Concepción,www.unc.edu.py,"SI, Acepto","ODS 1: Fin de la pobreza, ODS 8: Trabajo decente y crecimiento económico"
1081,PESCADERIAS,MICRO,ANDRES AUTOPIEZAS,ANDRES AUTOPIEZAS,HOMBRE,331240071,-23.409303,-57.4403,BERNARDINO CABALLERO,Productos y Servicios,Universidad Nacional de Concepción,www.unc.edu.py,"SI, Acepto","ODS 1: Fin de la pobreza, ODS 8: Trabajo decente y crecimiento económico"
1082,AFRECHOS,MICRO,LUICHI REPUESTOS,LUICHI REPUESTOS,HOMBRE,242759,-23.409106,-57.440064,BERNARDINO CABALLERO CASI SCREIBERT,Productos y Servicios,Universidad Nacional de Concepción,www.unc.edu.py,"SI, Acepto","ODS 1: Fin de la pobreza, ODS 8: Trabajo decente y crecimiento económico"
1083,HARINA DE TRIGO - Distribucion,,RELOJERÍA Y JOYERÍA RAMOS,RELOJERÍA Y JOYERÍA RAMOS,HOMBRE,0,-23.408751,-57.440643,MAYOR LORENZO MEDINA C/ SCREIBERT,Productos y Servicios,Universidad Nacional de Concepción,www.unc.edu.py,"SI, Acepto","ODS 1: Fin de la pobreza, ODS 8: Trabajo decente y crecimiento económico"
1084,CARNICERIAS,PEQUEÑA,RADIO CONCEPCION SRL,RADIO CONCEPCION SRL,HOMBRE,331242254,-23.4133,-57.439334,SCREIBERT Y PROF GUILLERMO CABRAL,Productos y Servicios,Universidad Nacional de Concepción,www.unc.edu.py,"SI, Acepto","ODS 1: Fin de la pobreza, ODS 8: Trabajo decente y crecimiento económico"
1085,DESPENSAS,MICRO,PLASTIFER COMERCIAL,PLASTIFER COMERCIAL,HOMBRE,975842850,-23.409007,-57.439764,BERNARDINO CABALLERO CASI SCREIBERT,Productos y Servicios,Universidad Nacional de Concepción,www.unc.edu.py,"SI, Acepto","ODS 1: Fin de la pobreza, ODS 8: Trabajo decente y crecimiento económico"
1086,ELECTRODOMESTICOS,MICRO,NOVEDADES ARAMI,NOVEDADES ARAMI,MUJER,973634062,-23.408712,-57.44045,MAYOR LORENZO MEDINA C/ SCREIBERT,Productos y Servicios,Universidad Nacional de Concepción,www.unc.edu.py,"SI, Acepto","ODS 1: Fin de la pobreza, ODS 8: Trabajo decente y crecimiento económico"
1087,RAMOS GENERALES -Ver: Almacenes Ramos Generales,MICRO,AGROVETERINARIA KOETI,AGROVETERINARIA KOETI,HOMBRE,241442,-23.409224,-57.439892,BERNARDINO CABALLERO CASI SCREIBERT,Productos y Servicios,Universidad Nacional de Concepción,www.unc.edu.py,"SI, Acepto","ODS 1: Fin de la pobreza, ODS 8: Trabajo decente y crecimiento económico"
1088,AUTOMOTORES - Auto Flex,,GUGU COMUNICACIONES,GUGU COMUNICACIONES,HOMBRE,331241113,-23.408997,-57.440085,BERNARDINO CABALLERO CASI SCREIBERT,Productos y Servicios,Universidad Nacional de Concepción,www.unc.edu.py,"SI, Acepto","ODS 1: Fin de la pobreza, ODS 8: Trabajo decente y crecimiento económico"
1089,MOTOCICLETAS - Repuestos y Accesorios,MICRO,COMERCIAL SERVIN 2,COMERCIAL SERVIN 2,HOMBRE,971724250,-23.408397,-57.440815,MAYOR LORENZO MEDINA CASI SCREIBERT,Productos y Servicios,Universidad Nacional de Concepción,www.unc.edu.py,"SI, Acepto","ODS 1: Fin de la pobreza, ODS 8: Trabajo decente y crecimiento económico"
1090,COOPERATIVAS,MICRO,SINAÍ,SINAÍ,HOMBRE,973651833,-23.408594,-57.440515,MAYOR LORENZO MEDINA C/ SCREIBERT,Productos y Servicios,Universidad Nacional de Concepción,www.unc.edu.py,"SI, Acepto","ODS 1: Fin de la pobreza, ODS 8: Trabajo decente y crecimiento económico"
1091,ABOGADOS,MICRO,TODO POR 20 MIL,TODO POR 20 MIL,ORGANIZACION,992225180,-23.408436,-57.440579,MAYOR LORENZO MEDINA ENTRE AVENIDA PINEDO Y SCREIBERT,Productos y Servicios,Universidad Nacional de Concepción,www.unc.edu.py,"SI, Acepto","ODS 1: Fin de la pobreza, ODS 8: Trabajo decente y crecimiento económico"
1092,TOPOGRAFIA,MICRO,ONI SOUND CAR,ONI SOUND CAR,HOMBRE,0,-23.40881,-57.438841,MAYOR LORENZO MEDINA CASI SCREIBERT,Productos y Servicios,Universidad Nacional de Concepción,www.unc.edu.py,"SI, Acepto","ODS 1: Fin de la pobreza, ODS 8: Trabajo decente y crecimiento económico"
1093,ANALISIS CLINICOS - Laboratorios,MICRO,LIBRERIA CULTURA,LIBRERIA CULTURA,MUJER,242575,-23.409066,-57.441115,AVENIDA PINEDO Y MAYOR LORENZO MEDINA,Productos y Servicios,Universidad Nacional de Concepción,www.unc.edu.py,"SI, Acepto","ODS 1: Fin de la pobreza, ODS 8: Trabajo decente y crecimiento económico"